{"type":"FeatureCollection","features":[{"type":"Feature","properties":{"provinsi":"Jawa Timur","kabkota":"Kabupaten Bangkalan","lat":-7.0443,"lon":112.9296},"geometry":{"type":"Polygon","coordinates":[[[112.6823,-7.0316],[112.6885,-7.0297],[112.7111,-7.0405],[112.7229,-7.0387],[112.7406,-7.0182],[112.7742,-6.998],[112.8283,-6.9308],[112.8291,-6.9204],[112.8235,-6.9101],[112.8322,-6.9063],[112.8353,-6.9157],[112.8409,-6.9163],[112.8483,-6.909],[112.8493,-6.8967],[112.8713,-6.8919],[112.8755,-6.8979],[112.8821,-6.8905],[112.9208,-6.8939],[112.9519,-6.887],[112.987,-6.8869],[112.9998,-6.8816],[113.0021,-6.8874],[113.0061,-6.8811],[113.0278,-6.8836],[113.0339,-6.8795],[113.0531,-6.885],[113.0636,-6.882],[113.0875,-6.8888],[113.108,-6.8885],[113.1107,-6.8944],[113.1212,-6.89],[113.1272,-6.8982],[113.1266,-6.9062],[113.1187,-6.9053],[113.1155,-6.9366],[113.1018,-6.9319],[113.0951,-6.9458],[113.1083,-6.9534],[113.1024,-6.9602],[113.1094,-6.9741],[113.105,-6.987],[113.1127,-6.9888],[113.1337,-6.9773],[113.1478,-6.9845],[113.1463,-6.9978],[113.1391,-7.0054],[113.1423,-7.0141],[113.1336,-7.0237],[113.1335,-7.0355],[113.1157,-7.0317],[113.1161,-7.0495],[113.111,-7.0477],[113.1121,-7.0596],[113.1199,-7.0672],[113.1201,-7.0801],[113.1076,-7.0797],[113.1161,-7.0984],[113.1127,-7.1058],[113.1155,-7.1163],[113.1074,-7.108],[113.1038,-7.1255],[113.0941,-7.1302],[113.0971,-7.1572],[113.077,-7.151],[113.0702,-7.1625],[113.0576,-7.1637],[113.0565,-7.1749],[113.0482,-7.1842],[113.0612,-7.1901],[113.0609,-7.1961],[113.0447,-7.2022],[113.0404,-7.2129],[113.0138,-7.2055],[112.9978,-7.2088],[112.9919,-7.2022],[112.9654,-7.1999],[112.9185,-7.1831],[112.9134,-7.1853],[112.8639,-7.1628],[112.8451,-7.1657],[112.8124,-7.1583],[112.7771,-7.1595],[112.7518,-7.171],[112.7285,-7.1705],[112.722,-7.1752],[112.6915,-7.1538],[112.706,-7.0968],[112.7011,-7.0934],[112.6861,-7.0955],[112.6733,-7.0719],[112.6823,-7.0316]]]}},{"type":"Feature","properties":{"provinsi":"Jawa Timur","kabkota":"Kabupaten Banyuwangi","lat":-8.365,"lon":114.2054},"geometry":{"type":"Polygon","coordinates":[[[113.855,-8.5195],[113.8431,-8.5034],[113.8421,-8.4943],[113.8546,-8.4299],[113.8903,-8.4099],[113.9003,-8.4239],[113.8993,-8.4344],[113.9102,-8.4419],[113.9321,-8.4253],[113.9374,-8.4091],[113.9467,-8.4022],[113.9236,-8.3842],[113.9276,-8.3761],[113.9216,-8.3699],[113.9209,-8.3571],[113.9158,-8.3483],[113.909,-8.3469],[113.9269,-8.3274],[113.9281,-8.3199],[113.9203,-8.3082],[113.9343,-8.2815],[113.9343,-8.2552],[113.9442,-8.2445],[113.9587,-8.2435],[113.9644,-8.2382],[113.9681,-8.2206],[113.9575,-8.2064],[113.9707,-8.1895],[113.9906,-8.1827],[114.0239,-8.1404],[114.0385,-8.1392],[114.0604,-8.1224],[114.0786,-8.1268],[114.0917,-8.1162],[114.1166,-8.1144],[114.1465,-8.101],[114.1727,-8.1073],[114.1766,-8.12],[114.1843,-8.1209],[114.1952,-8.1036],[114.2138,-8.0997],[114.2198,-8.0737],[114.2385,-8.0632],[114.2488,-8.0456],[114.2358,-8.0312],[114.2384,-8.0067],[114.2244,-7.9898],[114.2251,-7.983],[114.2497,-7.9394],[114.2713,-7.9196],[114.2831,-7.8972],[114.2932,-7.8889],[114.3067,-7.8853],[114.3333,-7.9065],[114.3965,-7.9268],[114.4128,-7.9401],[114.4238,-7.9355],[114.4228,-7.9612],[114.4303,-7.9967],[114.4257,-8.0191],[114.4346,-8.0321],[114.429,-8.0452],[114.4301,-8.0653],[114.4175,-8.0808],[114.4072,-8.1108],[114.3984,-8.1215],[114.4018,-8.1502],[114.3824,-8.2],[114.3904,-8.235],[114.3661,-8.2803],[114.3647,-8.3105],[114.3578,-8.3272],[114.3608,-8.3359],[114.3528,-8.3546],[114.34,-8.4232],[114.342,-8.439],[114.356,-8.4589],[114.3543,-8.4676],[114.3635,-8.4841],[114.3506,-8.5274],[114.3645,-8.5373],[114.3757,-8.5328],[114.3852,-8.5067],[114.3881,-8.4816],[114.3827,-8.4489],[114.389,-8.4478],[114.3995,-8.4612],[114.3975,-8.4948],[114.4094,-8.5098],[114.4014,-8.5417],[114.4081,-8.5561],[114.4082,-8.5691],[114.4393,-8.6307],[114.4482,-8.639],[114.4573,-8.6388],[114.4727,-8.6177],[114.4809,-8.6179],[114.4914,-8.6322],[114.5055,-8.6359],[114.5146,-8.6502],[114.543,-8.6591],[114.5617,-8.6558],[114.5693,-8.66],[114.6048,-8.7157],[114.5955,-8.7513],[114.5876,-8.7625],[114.5695,-8.7726],[114.5329,-8.7803],[114.5051,-8.7755],[114.4779,-8.7604],[114.4455,-8.7528],[114.3697,-8.7507],[114.3452,-8.7429],[114.3429,-8.7349],[114.3668,-8.723],[114.3764,-8.7055],[114.3699,-8.6707],[114.3507,-8.6463],[114.3258,-8.6279],[114.2594,-8.6025],[114.2471,-8.6002],[114.228,-8.6047],[114.2254,-8.6123],[114.2299,-8.6207],[114.2206,-8.6454],[114.1842,-8.6405],[114.1428,-8.6228],[114.0947,-8.6156],[114.0852,-8.6209],[114.0845,-8.6296],[114.0778,-8.625],[114.0597,-8.6268],[114.058,-8.6381],[114.05,-8.6381],[114.0497,-8.6478],[114.0471,-8.6377],[114.0327,-8.6334],[114.0289,-8.5997],[114.0154,-8.5905],[113.9964,-8.5938],[113.9961,-8.6106],[113.9896,-8.5994],[113.9883,-8.6063],[113.9722,-8.6075],[113.9636,-8.617],[113.9565,-8.614],[113.9568,-8.609],[113.9471,-8.5999],[113.9524,-8.5952],[113.9584,-8.5993],[113.9658,-8.5967],[113.9687,-8.5841],[113.9589,-8.5676],[113.946,-8.5592],[113.936,-8.5599],[113.9351,-8.5674],[113.9251,-8.5611],[113.9234,-8.5748],[113.9089,-8.5802],[113.8936,-8.5648],[113.8759,-8.5577],[113.867,-8.5627],[113.8567,-8.5603],[113.8525,-8.5506],[113.837,-8.5547],[113.855,-8.5195]]]}},{"type":"Feature","properties":{"provinsi":"Jawa Timur","kabkota":"Kabupaten Blitar","lat":-8.13,"lon":112.2379},"geometry":{"type":"Polygon","coordinates":[[[111.9762,-8.012],[111.9775,-7.9963],[112.0186,-7.9996],[112.037,-7.9921],[112.0529,-7.9929],[112.0537,-7.9886],[112.0907,-7.9916],[112.0963,-7.9888],[112.0963,-7.97],[112.1122,-7.9701],[112.1147,-7.9774],[112.18,-7.9734],[112.229,-7.955],[112.2542,-7.9523],[112.2631,-7.9444],[112.2749,-7.9453],[112.2796,-7.9399],[112.2978,-7.9376],[112.3066,-7.9293],[112.3413,-7.9394],[112.3707,-7.9572],[112.4469,-7.9117],[112.4524,-7.9187],[112.4509,-7.9268],[112.4659,-7.9462],[112.4653,-7.9552],[112.4745,-7.9581],[112.479,-7.9712],[112.4684,-7.9871],[112.4713,-7.9953],[112.4633,-8.0161],[112.4645,-8.0298],[112.4543,-8.0571],[112.4581,-8.0708],[112.4539,-8.0975],[112.4578,-8.1265],[112.4536,-8.1441],[112.4403,-8.1489],[112.4308,-8.1589],[112.4178,-8.1597],[112.4154,-8.1663],[112.4117,-8.1603],[112.3959,-8.1648],[112.3905,-8.1621],[112.3663,-8.1754],[112.3672,-8.1834],[112.3853,-8.1922],[112.3831,-8.2078],[112.3934,-8.2279],[112.3883,-8.2361],[112.3718,-8.2375],[112.3813,-8.2462],[112.3851,-8.2851],[112.3806,-8.3058],[112.3713,-8.311],[112.3606,-8.347],[112.349,-8.3519],[112.348,-8.3419],[112.3369,-8.3427],[112.3343,-8.3331],[112.3285,-8.331],[112.3195,-8.3337],[112.3163,-8.3425],[112.2963,-8.3317],[112.2861,-8.3322],[112.2634,-8.3505],[112.2545,-8.3431],[112.2412,-8.3472],[112.2208,-8.3428],[112.2179,-8.3397],[112.2227,-8.3322],[112.2161,-8.3263],[112.2088,-8.3302],[112.2025,-8.3257],[112.1821,-8.3266],[112.17,-8.3205],[112.1666,-8.3279],[112.1544,-8.3289],[112.143,-8.3157],[112.13,-8.3257],[112.1228,-8.3158],[112.1101,-8.3127],[112.1062,-8.3182],[112.09,-8.3151],[112.0654,-8.3226],[112.054,-8.3176],[112.0289,-8.3173],[112.0323,-8.2951],[112.0236,-8.2817],[112.0306,-8.2628],[112.0227,-8.2443],[112.0255,-8.2296],[112.0219,-8.2264],[112.0282,-8.2002],[112.023,-8.1933],[112.0291,-8.1814],[112.0288,-8.1682],[112.0577,-8.1836],[112.0787,-8.1873],[112.1037,-8.1584],[112.1163,-8.1578],[112.1211,-8.1253],[112.0948,-8.1107],[112.0765,-8.1186],[112.0666,-8.1112],[112.0452,-8.1085],[112.0326,-8.1001],[111.9978,-8.0921],[111.9913,-8.0787],[111.9944,-8.0592],[111.9881,-8.0498],[111.9749,-8.0444],[111.9681,-8.0224],[111.9567,-8.0089],[111.9557,-7.9982],[111.9762,-8.012]],[[112.1402,-8.0963],[112.1374,-8.1106],[112.146,-8.1104],[112.1404,-8.1169],[112.1501,-8.1213],[112.1476,-8.1278],[112.1598,-8.1261],[112.1562,-8.1352],[112.1595,-8.1364],[112.1668,-8.1332],[112.1861,-8.0984],[112.1923,-8.0993],[112.1956,-8.0885],[112.1905,-8.0858],[112.1923,-8.0772],[112.1992,-8.068],[112.1882,-8.0663],[112.1862,-8.0562],[112.181,-8.061],[112.1732,-8.0583],[112.1616,-8.0848],[112.1569,-8.0863],[112.1435,-8.0773],[112.1326,-8.091],[112.1402,-8.0963]]]}},{"type":"Feature","properties":{"provinsi":"Jawa Timur","kabkota":"Kabupaten Bojonegoro","lat":-7.2556,"lon":111.81},"geometry":{"type":"Polygon","coordinates":[[[111.4422,-7.2889],[111.4444,-7.2785],[111.4388,-7.2686],[111.4514,-7.2741],[111.4517,-7.2481],[111.4617,-7.2624],[111.4691,-7.2623],[111.4772,-7.252],[111.4898,-7.2608],[111.4878,-7.2431],[111.5026,-7.2483],[111.5224,-7.2372],[111.5281,-7.2273],[111.5422,-7.2272],[111.5367,-7.2159],[111.549,-7.2053],[111.5553,-7.2017],[111.5668,-7.2066],[111.5658,-7.1873],[111.5873,-7.1853],[111.5851,-7.1692],[111.5986,-7.1552],[111.5987,-7.1453],[111.6062,-7.1466],[111.6103,-7.1422],[111.6061,-7.1278],[111.6117,-7.1247],[111.6134,-7.1107],[111.6215,-7.1088],[111.6139,-7.0988],[111.6169,-7.0976],[111.6125,-7.0835],[111.617,-7.075],[111.6261,-7.0726],[111.6289,-7.0638],[111.6135,-7.035],[111.6132,-7.0108],[111.6221,-6.9864],[111.652,-6.9993],[111.6588,-7.0372],[111.6718,-7.0406],[111.681,-7.0512],[111.6951,-7.0544],[111.6929,-7.0682],[111.7062,-7.0837],[111.7205,-7.0792],[111.7273,-7.0841],[111.7435,-7.0841],[111.7549,-7.0933],[111.7756,-7.082],[111.8254,-7.0876],[111.8382,-7.1037],[111.8564,-7.1149],[111.8549,-7.1218],[111.8617,-7.1294],[111.8645,-7.1242],[111.8757,-7.1322],[111.8826,-7.1268],[111.8937,-7.1285],[111.8994,-7.1366],[111.9087,-7.1382],[111.9215,-7.1319],[111.9313,-7.1334],[111.9327,-7.16],[111.9427,-7.1547],[111.9549,-7.1322],[111.9766,-7.1435],[111.9773,-7.1618],[111.9836,-7.164],[111.9837,-7.1489],[111.9948,-7.1148],[112.0048,-7.1305],[112.0105,-7.1301],[112.0034,-7.1082],[112.0144,-7.1016],[112.0054,-7.0946],[112.02,-7.0887],[112.0154,-7.073],[112.0199,-7.0674],[112.0276,-7.0706],[112.031,-7.0788],[112.0391,-7.071],[112.0446,-7.0716],[112.0467,-7.0753],[112.0398,-7.0784],[112.0414,-7.0821],[112.055,-7.0726],[112.0824,-7.0654],[112.0857,-7.0856],[112.1242,-7.0879],[112.1176,-7.0966],[112.1225,-7.1081],[112.1301,-7.0968],[112.1418,-7.1047],[112.1506,-7.1007],[112.1465,-7.1071],[112.1545,-7.1101],[112.1551,-7.1148],[112.1626,-7.1118],[112.1658,-7.1171],[112.1513,-7.1581],[112.1397,-7.1579],[112.1301,-7.1835],[112.1243,-7.1859],[112.1185,-7.2121],[112.1093,-7.2225],[112.0896,-7.228],[112.0843,-7.2501],[112.0881,-7.253],[112.0843,-7.256],[112.0875,-7.2667],[112.0944,-7.2692],[112.0912,-7.2822],[112.0863,-7.284],[112.09,-7.304],[112.0768,-7.3145],[112.0783,-7.3242],[112.0728,-7.3326],[112.089,-7.3585],[112.0849,-7.3785],[112.0756,-7.384],[112.0693,-7.397],[112.0479,-7.3941],[112.0479,-7.3996],[112.0352,-7.4018],[112.0239,-7.3959],[112.0197,-7.4098],[111.9987,-7.4034],[111.984,-7.4074],[111.9713,-7.405],[111.958,-7.4133],[111.9435,-7.4062],[111.9424,-7.4109],[111.956,-7.4163],[111.9598,-7.4269],[111.9403,-7.4401],[111.9053,-7.4333],[111.8779,-7.4409],[111.8616,-7.4359],[111.8213,-7.4395],[111.8149,-7.4507],[111.8004,-7.4611],[111.7698,-7.4695],[111.7167,-7.4432],[111.6845,-7.4166],[111.6275,-7.3876],[111.6049,-7.3636],[111.5749,-7.349],[111.5665,-7.3599],[111.5538,-7.3591],[111.5451,-7.3701],[111.5279,-7.3722],[111.507,-7.3618],[111.497,-7.3644],[111.4731,-7.3575],[111.4626,-7.363],[111.457,-7.3519],[111.4449,-7.3611],[111.4418,-7.3501],[111.4457,-7.3452],[111.4627,-7.3454],[111.4462,-7.3371],[111.4576,-7.3216],[111.4475,-7.3135],[111.4329,-7.3149],[111.4236,-7.3092],[111.4422,-7.2889]],[[111.8659,-7.1283],[111.8676,-7.1291],[111.8681,-7.1281],[111.8659,-7.1283]]]}},{"type":"Feature","properties":{"provinsi":"Jawa Timur","kabkota":"Kabupaten Bondowoso","lat":-7.9432,"lon":113.9496},"geometry":{"type":"Polygon","coordinates":[[[113.6371,-7.9496],[113.6605,-7.9382],[113.6629,-7.9216],[113.6732,-7.9189],[113.6891,-7.9032],[113.6998,-7.8991],[113.7071,-7.8854],[113.7223,-7.8793],[113.7397,-7.7889],[113.7474,-7.7962],[113.7666,-7.7982],[113.7683,-7.7949],[113.7934,-7.8028],[113.8042,-7.8166],[113.8214,-7.811],[113.8368,-7.8123],[113.8533,-7.7944],[113.8723,-7.7975],[113.8773,-7.7911],[113.8828,-7.7969],[113.9035,-7.8027],[113.9055,-7.7956],[113.9182,-7.7888],[113.9348,-7.7927],[113.9357,-7.7764],[113.9508,-7.7652],[113.9888,-7.7811],[113.9999,-7.772],[114.0065,-7.7568],[114.0119,-7.7626],[114.0645,-7.7566],[114.0794,-7.7707],[114.0752,-7.7831],[114.0894,-7.806],[114.0892,-7.8238],[114.0956,-7.8406],[114.0926,-7.8752],[114.1111,-7.9096],[114.1137,-7.9427],[114.1279,-7.976],[114.128,-7.9918],[114.1662,-7.9704],[114.1911,-7.9714],[114.2118,-7.9778],[114.2243,-7.9867],[114.2383,-8.0061],[114.2407,-8.0134],[114.2358,-8.0311],[114.2488,-8.0456],[114.2467,-8.0547],[114.2368,-8.0649],[114.2196,-8.0739],[114.214,-8.0995],[114.1952,-8.1036],[114.1844,-8.1209],[114.1764,-8.1203],[114.1725,-8.1074],[114.1464,-8.101],[114.1166,-8.1144],[114.0917,-8.1162],[114.0786,-8.1268],[114.0605,-8.1224],[114.0513,-8.1326],[114.0433,-8.1338],[114.0346,-8.1289],[114.0386,-8.1208],[114.0296,-8.1151],[114.0282,-8.0954],[114.0064,-8.0724],[113.9871,-8.0669],[113.9704,-8.055],[113.9586,-8.0551],[113.9188,-8.0253],[113.9028,-8.0185],[113.8802,-8.0121],[113.8839,-8.0225],[113.8793,-8.0334],[113.8701,-8.0321],[113.8684,-8.0358],[113.8551,-8.0223],[113.8513,-8.0271],[113.8459,-8.0242],[113.8473,-8.0304],[113.8539,-8.0335],[113.8547,-8.0452],[113.8125,-8.0463],[113.8022,-8.0577],[113.7945,-8.0465],[113.7851,-8.0518],[113.7722,-8.0384],[113.7678,-8.0442],[113.7459,-8.0367],[113.7324,-8.02],[113.7197,-8.017],[113.695,-7.9943],[113.6813,-7.9888],[113.6692,-7.9752],[113.6708,-7.9684],[113.6485,-7.9739],[113.6356,-7.9656],[113.6295,-7.9725],[113.6233,-7.9622],[113.6371,-7.9496]]]}},{"type":"Feature","properties":{"provinsi":"Jawa Timur","kabkota":"Kabupaten Gresik","lat":-7.1415,"lon":112.5391},"geometry":{"type":"MultiPolygon","coordinates":[[[[112.3767,-6.9528],[112.38,-6.958],[112.3906,-6.9601],[112.3952,-6.9553],[112.405,-6.9603],[112.4124,-6.9519],[112.4253,-6.9507],[112.4244,-6.9398],[112.4297,-6.9305],[112.4222,-6.9249],[112.4241,-6.9109],[112.4485,-6.8846],[112.4402,-6.8744],[112.4465,-6.8745],[112.4788,-6.9003],[112.5103,-6.9075],[112.5255,-6.9008],[112.542,-6.8761],[112.535,-6.864],[112.5432,-6.8616],[112.545,-6.8493],[112.5396,-6.8485],[112.5367,-6.8242],[112.5466,-6.8334],[112.5589,-6.8575],[112.5705,-6.8569],[112.5798,-6.8869],[112.6046,-6.8938],[112.6126,-6.914],[112.6054,-6.9175],[112.5954,-6.9109],[112.5932,-6.9289],[112.5978,-6.9559],[112.6174,-6.9928],[112.6235,-6.9941],[112.6271,-7.0012],[112.6424,-7.0031],[112.6504,-7.0186],[112.6461,-7.0337],[112.6531,-7.0423],[112.6496,-7.0581],[112.6385,-7.0586],[112.6337,-7.0665],[112.6312,-7.0975],[112.6236,-7.1061],[112.6223,-7.1193],[112.6306,-7.1344],[112.6568,-7.1441],[112.6522,-7.1467],[112.6633,-7.1542],[112.6608,-7.158],[112.6664,-7.1577],[112.6711,-7.1686],[112.6682,-7.1744],[112.6724,-7.1751],[112.6631,-7.1932],[112.6277,-7.1959],[112.6207,-7.2086],[112.62,-7.2019],[112.6157,-7.2076],[112.6133,-7.2009],[112.6105,-7.2079],[112.6077,-7.2027],[112.6053,-7.2075],[112.5974,-7.204],[112.6008,-7.2129],[112.5952,-7.2148],[112.6006,-7.2174],[112.5972,-7.222],[112.5931,-7.2156],[112.5916,-7.2229],[112.6046,-7.2328],[112.6028,-7.2469],[112.6146,-7.2482],[112.6177,-7.2575],[112.6323,-7.2617],[112.6267,-7.2813],[112.6273,-7.3144],[112.6519,-7.3149],[112.6515,-7.3375],[112.6608,-7.3359],[112.6661,-7.346],[112.6537,-7.362],[112.6427,-7.3608],[112.6302,-7.3678],[112.5968,-7.3722],[112.5889,-7.3701],[112.5836,-7.3834],[112.5718,-7.392],[112.5678,-7.3881],[112.567,-7.3976],[112.5477,-7.404],[112.5292,-7.4037],[112.5254,-7.3972],[112.4953,-7.4081],[112.4934,-7.3995],[112.4847,-7.3977],[112.4757,-7.3852],[112.4745,-7.3716],[112.4796,-7.365],[112.4766,-7.3529],[112.4855,-7.3393],[112.4796,-7.3312],[112.4776,-7.3048],[112.4697,-7.304],[112.4674,-7.311],[112.4588,-7.3121],[112.4449,-7.3045],[112.4443,-7.3118],[112.433,-7.3145],[112.4287,-7.3109],[112.4214,-7.3172],[112.4216,-7.3124],[112.4148,-7.3122],[112.415,-7.3164],[112.4108,-7.3122],[112.4037,-7.3213],[112.3989,-7.3202],[112.3913,-7.3334],[112.3762,-7.3278],[112.3761,-7.3236],[112.3711,-7.3262],[112.3716,-7.3208],[112.3887,-7.3213],[112.3921,-7.3131],[112.4011,-7.314],[112.4103,-7.3052],[112.4116,-7.2965],[112.4071,-7.2911],[112.4122,-7.2736],[112.3997,-7.2656],[112.3997,-7.2607],[112.4135,-7.2483],[112.419,-7.232],[112.4363,-7.23],[112.4369,-7.2221],[112.4561,-7.2074],[112.4722,-7.2085],[112.4791,-7.1979],[112.5014,-7.1923],[112.5073,-7.1758],[112.5117,-7.1788],[112.5051,-7.1633],[112.4793,-7.1643],[112.4702,-7.159],[112.4761,-7.1256],[112.4878,-7.1288],[112.4946,-7.123],[112.498,-7.1255],[112.4957,-7.1199],[112.5013,-7.1068],[112.5186,-7.1077],[112.5175,-7.1033],[112.5355,-7.0963],[112.5317,-7.0822],[112.5379,-7.0805],[112.5524,-7.0508],[112.5453,-7.0474],[112.5416,-7.0535],[112.5238,-7.0389],[112.5192,-7.0471],[112.4985,-7.0308],[112.4967,-7.0246],[112.5095,-7.0198],[112.5113,-7.0125],[112.4901,-7.0057],[112.4814,-7.0113],[112.481,-7.0029],[112.4604,-7.0084],[112.4515,-7.0155],[112.4528,-7.0012],[112.4283,-7.0025],[112.4166,-6.9936],[112.3986,-6.9933],[112.3916,-6.9858],[112.3669,-6.9869],[112.3767,-6.9528]],[[112.6667,-7.171],[112.6678,-7.1701],[112.667,-7.1693],[112.6667,-7.171]]],[[[112.5722,-5.8038],[112.5815,-5.8068],[112.5845,-5.7959],[112.5792,-5.7893],[112.5886,-5.787],[112.5965,-5.7697],[112.6043,-5.7733],[112.6118,-5.7698],[112.6148,-5.7492],[112.6244,-5.7492],[112.6467,-5.7302],[112.6706,-5.737],[112.6754,-5.7332],[112.6741,-5.7232],[112.6861,-5.7158],[112.688,-5.7235],[112.7006,-5.7333],[112.7135,-5.7316],[112.7262,-5.737],[112.7242,-5.76],[112.7313,-5.7593],[112.7356,-5.7654],[112.7304,-5.7719],[112.7416,-5.7887],[112.7284,-5.8149],[112.7339,-5.8311],[112.721,-5.8334],[112.7131,-5.8468],[112.7045,-5.846],[112.7002,-5.8525],[112.6851,-5.8559],[112.6786,-5.852],[112.6707,-5.8554],[112.6659,-5.851],[112.6518,-5.8526],[112.6327,-5.8445],[112.6207,-5.8715],[112.6212,-5.856],[112.5916,-5.8556],[112.584,-5.8445],[112.5763,-5.8449],[112.5847,-5.8323],[112.5745,-5.8271],[112.5791,-5.8128],[112.5693,-5.8102],[112.5722,-5.8038]]],[[[112.771,-5.7957],[112.7759,-5.8035],[112.7708,-5.8043],[112.7679,-5.7963],[112.771,-5.7957]]]]}},{"type":"Feature","properties":{"provinsi":"Jawa Timur","kabkota":"Kabupaten Jember","lat":-8.2314,"lon":113.6624},"geometry":{"type":"MultiPolygon","coordinates":[[[[113.3198,-8.2651],[113.3131,-8.2288],[113.3268,-8.2213],[113.3334,-8.2083],[113.3532,-8.2037],[113.3679,-8.185],[113.366,-8.1683],[113.3795,-8.158],[113.3791,-8.1488],[113.3724,-8.1464],[113.3759,-8.1311],[113.3624,-8.1182],[113.3684,-8.1107],[113.362,-8.1006],[113.3666,-8.0856],[113.3571,-8.0783],[113.3487,-8.0548],[113.3551,-8.0352],[113.3871,-8.0137],[113.3913,-7.9973],[113.4086,-8.0129],[113.4254,-8.0112],[113.4336,-8.0213],[113.4415,-8.0166],[113.4443,-8.0243],[113.458,-8.0246],[113.4794,-8.0176],[113.482,-8.0083],[113.4763,-7.9969],[113.4804,-7.9924],[113.4948,-8.0046],[113.528,-8.0169],[113.5302,-8.0081],[113.5525,-7.9982],[113.5608,-7.9866],[113.5874,-7.9858],[113.5925,-7.9792],[113.6026,-7.9796],[113.6057,-7.9891],[113.6148,-7.99],[113.6188,-7.9835],[113.6269,-7.9819],[113.6277,-7.9759],[113.6711,-7.9683],[113.6693,-7.9751],[113.6813,-7.9887],[113.6951,-7.9943],[113.7197,-8.0169],[113.7324,-8.02],[113.7459,-8.0367],[113.767,-8.0442],[113.7721,-8.0384],[113.7851,-8.0518],[113.7945,-8.0464],[113.8023,-8.0575],[113.8126,-8.0461],[113.8543,-8.0452],[113.8539,-8.0335],[113.8454,-8.024],[113.8511,-8.027],[113.855,-8.0222],[113.8677,-8.0358],[113.8701,-8.0321],[113.8792,-8.0332],[113.8839,-8.0222],[113.8795,-8.0133],[113.8861,-8.0124],[113.9186,-8.025],[113.9587,-8.0551],[113.9702,-8.055],[113.987,-8.0669],[114.0064,-8.0724],[114.014,-8.0846],[114.0282,-8.0951],[114.0296,-8.1151],[114.0386,-8.1204],[114.0354,-8.1286],[114.0434,-8.1319],[114.038,-8.1394],[114.0225,-8.1414],[113.9909,-8.1826],[113.9707,-8.1896],[113.9576,-8.2062],[113.9681,-8.2205],[113.9666,-8.2322],[113.9594,-8.2433],[113.9443,-8.2445],[113.9343,-8.2552],[113.9373,-8.2663],[113.9343,-8.2815],[113.9207,-8.3082],[113.9283,-8.3198],[113.9272,-8.3276],[113.9103,-8.345],[113.9212,-8.3573],[113.9216,-8.3698],[113.9277,-8.3767],[113.9249,-8.3858],[113.9473,-8.4017],[113.9374,-8.4091],[113.9321,-8.4254],[113.9102,-8.4419],[113.8992,-8.4343],[113.9003,-8.4239],[113.8904,-8.4099],[113.8546,-8.4299],[113.8421,-8.4944],[113.8431,-8.5034],[113.855,-8.5195],[113.8371,-8.554],[113.8336,-8.5417],[113.8369,-8.5302],[113.8289,-8.5277],[113.8252,-8.5431],[113.8156,-8.5464],[113.8145,-8.5589],[113.8068,-8.556],[113.807,-8.5476],[113.8161,-8.5366],[113.8077,-8.5322],[113.8072,-8.5213],[113.8038,-8.5207],[113.8101,-8.5168],[113.8055,-8.5081],[113.8122,-8.503],[113.7961,-8.4898],[113.789,-8.49],[113.7874,-8.4991],[113.7802,-8.496],[113.7711,-8.504],[113.7583,-8.503],[113.7548,-8.5104],[113.7617,-8.5143],[113.7538,-8.5198],[113.7344,-8.5261],[113.7314,-8.5154],[113.7252,-8.521],[113.7222,-8.5175],[113.7138,-8.5271],[113.7104,-8.5232],[113.7127,-8.5151],[113.7192,-8.5122],[113.7164,-8.5095],[113.7218,-8.4969],[113.7171,-8.4852],[113.7029,-8.4828],[113.7032,-8.4906],[113.6903,-8.5054],[113.6836,-8.4916],[113.6728,-8.4926],[113.6691,-8.4982],[113.6462,-8.495],[113.6483,-8.4812],[113.6362,-8.4725],[113.642,-8.4653],[113.6384,-8.4553],[113.6244,-8.4548],[113.6272,-8.4508],[113.6236,-8.4463],[113.6006,-8.436],[113.5831,-8.4438],[113.5812,-8.4326],[113.5699,-8.4255],[113.5568,-8.4273],[113.5548,-8.4369],[113.5474,-8.4333],[113.5488,-8.4303],[113.5265,-8.4304],[113.5116,-8.4219],[113.5044,-8.4233],[113.4943,-8.4135],[113.4849,-8.4164],[113.4781,-8.4107],[113.4728,-8.3837],[113.4541,-8.3786],[113.4322,-8.3793],[113.3882,-8.4004],[113.3584,-8.3503],[113.3288,-8.3222],[113.3034,-8.3075],[113.3198,-8.2651]],[[113.6409,-8.2055],[113.6493,-8.203],[113.6511,-8.1973],[113.6723,-8.1974],[113.6785,-8.2045],[113.6855,-8.2034],[113.6846,-8.2174],[113.6986,-8.2104],[113.7132,-8.2128],[113.7234,-8.2072],[113.7349,-8.2119],[113.7449,-8.2059],[113.7439,-8.2017],[113.7537,-8.1926],[113.7506,-8.1654],[113.7581,-8.1481],[113.7383,-8.1319],[113.7421,-8.1253],[113.7361,-8.1235],[113.7332,-8.1289],[113.7119,-8.1225],[113.7047,-8.1146],[113.6993,-8.0944],[113.6833,-8.0806],[113.6789,-8.0879],[113.6932,-8.1111],[113.6941,-8.1237],[113.6879,-8.1231],[113.6864,-8.1173],[113.6701,-8.1074],[113.6724,-8.1326],[113.6653,-8.1375],[113.6717,-8.1589],[113.671,-8.1741],[113.6554,-8.1777],[113.652,-8.1845],[113.6421,-8.1816],[113.6447,-8.1939],[113.6409,-8.2055]]],[[[113.2691,-8.4672],[113.2887,-8.4607],[113.2942,-8.4443],[113.3151,-8.4525],[113.3316,-8.4484],[113.3429,-8.4581],[113.3531,-8.4495],[113.3675,-8.4507],[113.3713,-8.4586],[113.3967,-8.4552],[113.4058,-8.4662],[113.4037,-8.4719],[113.4107,-8.4674],[113.4199,-8.4694],[113.4157,-8.4748],[113.4122,-8.473],[113.4076,-8.4924],[113.3609,-8.4992],[113.3511,-8.5049],[113.3408,-8.5003],[113.3107,-8.5085],[113.3125,-8.5004],[113.3071,-8.5085],[113.2998,-8.5023],[113.2948,-8.5079],[113.2854,-8.4982],[113.27,-8.497],[113.27,-8.4899],[113.2635,-8.4865],[113.2691,-8.4672]]]]}},{"type":"Feature","properties":{"provinsi":"Jawa Timur","kabkota":"Kabupaten Jombang","lat":-7.5443,"lon":112.2638},"geometry":{"type":"Polygon","coordinates":[[[112.0715,-7.406],[112.0692,-7.3972],[112.0757,-7.3839],[112.1058,-7.3835],[112.123,-7.3735],[112.1871,-7.3522],[112.2273,-7.3504],[112.2532,-7.3634],[112.2748,-7.357],[112.2895,-7.3589],[112.3289,-7.344],[112.3457,-7.345],[112.3323,-7.3706],[112.3319,-7.3799],[112.3341,-7.3888],[112.3406,-7.3882],[112.347,-7.3969],[112.3479,-7.418],[112.3413,-7.4281],[112.3459,-7.4414],[112.3345,-7.4462],[112.3327,-7.4537],[112.3415,-7.4598],[112.3512,-7.4549],[112.3978,-7.4576],[112.4047,-7.4617],[112.4033,-7.4669],[112.3926,-7.4673],[112.3889,-7.4804],[112.3839,-7.4788],[112.3718,-7.4889],[112.3767,-7.4972],[112.3699,-7.5136],[112.3738,-7.5254],[112.3666,-7.5248],[112.3705,-7.5403],[112.3647,-7.5441],[112.3639,-7.5523],[112.3749,-7.5631],[112.3704,-7.5669],[112.3766,-7.5773],[112.3717,-7.585],[112.3812,-7.5944],[112.3873,-7.6143],[112.3799,-7.6343],[112.3835,-7.6439],[112.3899,-7.6507],[112.4028,-7.642],[112.41,-7.645],[112.4117,-7.6735],[112.4304,-7.7001],[112.4385,-7.7327],[112.4477,-7.7418],[112.4468,-7.7594],[112.4556,-7.7792],[112.4433,-7.7768],[112.4361,-7.7674],[112.4304,-7.7715],[112.4193,-7.7673],[112.3973,-7.7761],[112.3612,-7.7612],[112.3485,-7.7488],[112.3028,-7.7273],[112.2673,-7.7226],[112.2662,-7.7283],[112.2523,-7.7261],[112.2334,-7.7071],[112.2346,-7.7022],[112.2154,-7.6892],[112.2178,-7.676],[112.2041,-7.6585],[112.1852,-7.6441],[112.1827,-7.6327],[112.1651,-7.6133],[112.1216,-7.6086],[112.1142,-7.6001],[112.1096,-7.6012],[112.1151,-7.582],[112.1119,-7.5654],[112.1342,-7.5353],[112.1442,-7.5353],[112.1507,-7.5293],[112.1521,-7.5061],[112.1691,-7.4896],[112.1643,-7.4898],[112.1643,-7.4786],[112.1578,-7.4766],[112.1566,-7.4655],[112.1283,-7.4583],[112.1253,-7.4521],[112.1236,-7.4624],[112.117,-7.4595],[112.1124,-7.4652],[112.0984,-7.4611],[112.0936,-7.4692],[112.0796,-7.4737],[112.0762,-7.4601],[112.0803,-7.452],[112.0626,-7.4173],[112.0715,-7.406]],[[112.3298,-7.3518],[112.3374,-7.3489],[112.3329,-7.3458],[112.3286,-7.3464],[112.3298,-7.3518]]]}},{"type":"Feature","properties":{"provinsi":"Jawa Timur","kabkota":"Kabupaten Kediri","lat":-7.8285,"lon":112.0897},"geometry":{"type":"Polygon","coordinates":[[[111.7992,-7.8366],[111.8132,-7.8226],[111.814,-7.813],[111.8251,-7.811],[111.8816,-7.7636],[111.8964,-7.7437],[111.928,-7.7226],[111.9318,-7.7088],[111.9541,-7.6796],[111.9821,-7.6844],[111.9823,-7.7115],[111.9882,-7.724],[111.9976,-7.7293],[112.0025,-7.7531],[112.0109,-7.7606],[112.0217,-7.7624],[112.0206,-7.7425],[112.0272,-7.7257],[112.0591,-7.7235],[112.0762,-7.7016],[112.0759,-7.6788],[112.0828,-7.6729],[112.0855,-7.6581],[112.0983,-7.6442],[112.1031,-7.6095],[112.1141,-7.5996],[112.1208,-7.6083],[112.165,-7.6132],[112.1827,-7.6327],[112.1852,-7.6441],[112.2045,-7.6585],[112.2178,-7.676],[112.2154,-7.6893],[112.2351,-7.7021],[112.2336,-7.7073],[112.2519,-7.7259],[112.2663,-7.7282],[112.267,-7.7225],[112.3018,-7.7268],[112.3486,-7.7488],[112.3612,-7.761],[112.3973,-7.7761],[112.4222,-7.767],[112.4181,-7.7743],[112.3968,-7.7854],[112.3819,-7.7849],[112.3667,-7.7684],[112.3492,-7.7614],[112.3287,-7.7773],[112.3108,-7.7768],[112.2992,-7.7695],[112.2878,-7.7709],[112.2883,-7.7795],[112.3067,-7.7995],[112.3079,-7.8384],[112.3194,-7.8391],[112.3182,-7.8615],[112.326,-7.8729],[112.3233,-7.8922],[112.3124,-7.9029],[112.3106,-7.9264],[112.2979,-7.9376],[112.2821,-7.9391],[112.2749,-7.9453],[112.2632,-7.9444],[112.2543,-7.9523],[112.2292,-7.9549],[112.18,-7.9734],[112.1141,-7.9774],[112.1122,-7.9701],[112.097,-7.97],[112.0963,-7.9891],[112.0906,-7.9916],[112.0544,-7.9886],[112.0534,-7.9929],[112.0375,-7.9921],[112.017,-7.9996],[111.9863,-7.9964],[111.969,-7.9892],[111.9695,-8.0071],[111.9636,-8.0058],[111.9439,-7.9645],[111.9448,-7.9545],[111.9291,-7.9625],[111.9213,-7.9566],[111.9171,-7.9612],[111.8836,-7.9479],[111.863,-7.9077],[111.8304,-7.8774],[111.8027,-7.8657],[111.7972,-7.8479],[111.7992,-7.8366]],[[111.9585,-7.823],[111.9837,-7.8276],[111.9869,-7.8393],[112.008,-7.8401],[111.9972,-7.8527],[112.0145,-7.8554],[112.0242,-7.8645],[112.046,-7.8725],[112.0579,-7.8651],[112.0732,-7.8723],[112.0656,-7.8584],[112.0687,-7.8456],[112.0797,-7.8483],[112.0819,-7.8448],[112.0737,-7.841],[112.077,-7.8325],[112.0703,-7.8294],[112.067,-7.836],[112.0559,-7.8343],[112.0332,-7.8188],[112.0355,-7.8131],[112.0289,-7.8108],[112.0316,-7.8005],[112.0171,-7.8002],[112.0132,-7.7902],[112.0025,-7.7894],[112.0101,-7.7723],[111.9943,-7.7716],[111.9917,-7.78],[111.9836,-7.7813],[111.9781,-7.7943],[111.9671,-7.7959],[111.9553,-7.8071],[111.9585,-7.823]]]}},{"type":"Feature","properties":{"provinsi":"Jawa Timur","kabkota":"Kabupaten Lamongan","lat":-7.1315,"lon":112.3006},"geometry":{"type":"Polygon","coordinates":[[[112.0771,-7.3133],[112.0887,-7.3061],[112.0853,-7.2884],[112.0941,-7.2695],[112.0843,-7.2596],[112.0871,-7.2297],[112.0926,-7.2231],[112.0966,-7.2284],[112.1095,-7.2223],[112.1185,-7.212],[112.1242,-7.1858],[112.13,-7.1836],[112.1396,-7.158],[112.1514,-7.158],[112.1657,-7.1176],[112.1632,-7.1122],[112.1554,-7.1149],[112.1543,-7.1108],[112.1611,-7.1093],[112.1662,-7.0978],[112.1784,-7.0977],[112.1835,-7.0891],[112.1746,-7.085],[112.1786,-7.0757],[112.1835,-7.0747],[112.1837,-7.0832],[112.19,-7.084],[112.2037,-7.0745],[112.2166,-7.0748],[112.2188,-7.0687],[112.2158,-7.0429],[112.2221,-7.0376],[112.2033,-7.0294],[112.2144,-7.0094],[112.2019,-6.9443],[112.203,-6.9184],[112.1985,-6.9129],[112.1803,-6.9131],[112.1789,-6.9049],[112.172,-6.9025],[112.1734,-6.8948],[112.2142,-6.8807],[112.2168,-6.8744],[112.2245,-6.8726],[112.2398,-6.8717],[112.2474,-6.8787],[112.2685,-6.8794],[112.2848,-6.8693],[112.2987,-6.8742],[112.3291,-6.8631],[112.3441,-6.8701],[112.3584,-6.8636],[112.3734,-6.8744],[112.3865,-6.8761],[112.4057,-6.872],[112.4142,-6.8646],[112.4377,-6.8701],[112.4484,-6.8848],[112.4363,-6.902],[112.4292,-6.9018],[112.4223,-6.9118],[112.4218,-6.9245],[112.4286,-6.9295],[112.4238,-6.9492],[112.4145,-6.9444],[112.4068,-6.9577],[112.3952,-6.9552],[112.3906,-6.9592],[112.3767,-6.9529],[112.3684,-6.9718],[112.3664,-6.9911],[112.3719,-6.9846],[112.3819,-6.9887],[112.3912,-6.9858],[112.3987,-6.9934],[112.4169,-6.9937],[112.4279,-7.0024],[112.4522,-7.0011],[112.4499,-7.0163],[112.4586,-7.0142],[112.4607,-7.0084],[112.4826,-7.003],[112.4814,-7.012],[112.4896,-7.0073],[112.4984,-7.0098],[112.4977,-7.0173],[112.5014,-7.0109],[112.5123,-7.0132],[112.51,-7.0194],[112.4962,-7.0268],[112.519,-7.047],[112.5236,-7.039],[112.5417,-7.0535],[112.5453,-7.0475],[112.5523,-7.0504],[112.5375,-7.081],[112.5317,-7.0821],[112.5305,-7.0895],[112.5356,-7.0962],[112.5223,-7.0998],[112.5172,-7.1075],[112.5016,-7.107],[112.4973,-7.1241],[112.4878,-7.1288],[112.4759,-7.126],[112.4702,-7.1589],[112.4853,-7.1662],[112.5052,-7.1634],[112.5038,-7.1722],[112.5074,-7.1751],[112.5015,-7.1918],[112.479,-7.198],[112.4746,-7.2041],[112.4678,-7.2017],[112.4641,-7.2085],[112.4526,-7.2083],[112.4348,-7.2285],[112.4188,-7.2323],[112.4125,-7.2393],[112.413,-7.249],[112.4075,-7.2471],[112.3976,-7.2641],[112.4121,-7.2737],[112.4051,-7.2948],[112.4114,-7.2958],[112.4104,-7.3036],[112.3871,-7.3201],[112.3587,-7.3264],[112.3589,-7.3334],[112.3488,-7.3377],[112.3457,-7.345],[112.3289,-7.344],[112.2896,-7.3589],[112.2747,-7.357],[112.2532,-7.3634],[112.2272,-7.3504],[112.187,-7.3522],[112.123,-7.3735],[112.1066,-7.3838],[112.0861,-7.3844],[112.0815,-7.3826],[112.0889,-7.3585],[112.0726,-7.3335],[112.0771,-7.3133]]]}},{"type":"Feature","properties":{"provinsi":"Jawa Timur","kabkota":"Kabupaten Lumajang","lat":-8.126,"lon":113.1373},"geometry":{"type":"Polygon","coordinates":[[[112.9255,-8.1107],[112.922,-8.1074],[112.9231,-8.0869],[112.9058,-8.0816],[112.9001,-8.0606],[112.9089,-8.0508],[112.909,-8.0416],[112.9347,-8.0188],[112.9259,-8.0003],[112.9278,-7.9968],[112.9362,-8.0004],[112.942,-7.9836],[112.9501,-7.987],[112.9748,-7.9802],[112.994,-7.9606],[113.0235,-7.9702],[113.0361,-7.9807],[113.0563,-8.0104],[113.0625,-8.0097],[113.065,-7.9993],[113.0788,-7.9842],[113.1059,-7.9843],[113.113,-7.9951],[113.136,-7.9766],[113.1493,-7.9795],[113.1543,-7.9712],[113.1911,-7.9447],[113.1985,-7.9309],[113.2061,-7.9267],[113.2118,-7.9112],[113.2074,-7.8999],[113.2482,-7.9078],[113.2568,-7.9068],[113.2625,-7.896],[113.2748,-7.9296],[113.3122,-7.9279],[113.3286,-7.9356],[113.3281,-7.9409],[113.3418,-7.9521],[113.3481,-7.9842],[113.3587,-7.9997],[113.3614,-8.0278],[113.3488,-8.0546],[113.35,-8.0632],[113.3574,-8.0787],[113.3667,-8.0857],[113.3635,-8.1017],[113.3684,-8.1107],[113.3624,-8.1183],[113.3759,-8.1308],[113.3724,-8.1463],[113.3791,-8.1486],[113.3796,-8.1574],[113.3668,-8.1686],[113.3679,-8.1852],[113.3607,-8.1894],[113.3532,-8.2036],[113.3336,-8.2082],[113.3268,-8.2213],[113.313,-8.2291],[113.3198,-8.2649],[113.3034,-8.3075],[113.2614,-8.289],[113.2197,-8.2815],[113.1615,-8.282],[113.1224,-8.2913],[113.0776,-8.2859],[113.0655,-8.2974],[113.0473,-8.2987],[112.9798,-8.325],[112.9596,-8.3531],[112.9347,-8.3318],[112.9417,-8.3122],[112.9194,-8.3076],[112.9149,-8.3019],[112.9188,-8.2846],[112.9105,-8.2653],[112.9182,-8.2576],[112.9228,-8.2396],[112.9129,-8.2194],[112.9031,-8.1577],[112.9255,-8.1107]]]}},{"type":"Feature","properties":{"provinsi":"Jawa Timur","kabkota":"Kabupaten Madiun","lat":-7.6245,"lon":111.6458},"geometry":{"type":"Polygon","coordinates":[[[111.4586,-7.7251],[111.4705,-7.7187],[111.4812,-7.7004],[111.4982,-7.699],[111.4987,-7.6738],[111.511,-7.6594],[111.5283,-7.6643],[111.5417,-7.6592],[111.5392,-7.6481],[111.5478,-7.6475],[111.5509,-7.6425],[111.5552,-7.6308],[111.5486,-7.6261],[111.5593,-7.6018],[111.5658,-7.5975],[111.5501,-7.595],[111.5341,-7.602],[111.5207,-7.5973],[111.512,-7.6082],[111.5008,-7.6078],[111.5023,-7.6204],[111.4965,-7.6237],[111.5004,-7.6264],[111.4959,-7.6375],[111.5069,-7.6409],[111.5112,-7.6352],[111.5117,-7.6489],[111.4996,-7.6462],[111.5039,-7.65],[111.5013,-7.6589],[111.4911,-7.6578],[111.4842,-7.6629],[111.4873,-7.6423],[111.4823,-7.6415],[111.4864,-7.6324],[111.4792,-7.6345],[111.4799,-7.64],[111.4691,-7.6403],[111.4634,-7.6289],[111.4537,-7.6235],[111.4612,-7.6137],[111.4685,-7.6149],[111.4733,-7.6079],[111.4793,-7.5774],[111.485,-7.5755],[111.4893,-7.5629],[111.4992,-7.5644],[111.5042,-7.5529],[111.5126,-7.5519],[111.5088,-7.5474],[111.5115,-7.5383],[111.5231,-7.5397],[111.5252,-7.5446],[111.5356,-7.5458],[111.5374,-7.5396],[111.5433,-7.5392],[111.5573,-7.5444],[111.5603,-7.5399],[111.547,-7.5374],[111.5505,-7.5271],[111.5864,-7.521],[111.5804,-7.5125],[111.5905,-7.5058],[111.6049,-7.4768],[111.6105,-7.476],[111.6107,-7.4689],[111.6268,-7.467],[111.6438,-7.4516],[111.6515,-7.4503],[111.6506,-7.4387],[111.6682,-7.4226],[111.6712,-7.4095],[111.7167,-7.4432],[111.7673,-7.4688],[111.7984,-7.461],[111.8061,-7.4636],[111.8184,-7.4737],[111.8218,-7.493],[111.844,-7.4991],[111.8475,-7.5081],[111.8362,-7.5314],[111.8397,-7.5386],[111.8345,-7.5479],[111.8253,-7.5446],[111.8176,-7.5485],[111.8145,-7.542],[111.8044,-7.5457],[111.795,-7.5734],[111.7946,-7.5899],[111.7865,-7.6027],[111.79,-7.6142],[111.7853,-7.6226],[111.7829,-7.6504],[111.757,-7.6818],[111.7541,-7.7028],[111.7309,-7.7322],[111.7258,-7.7736],[111.7559,-7.8036],[111.7329,-7.8013],[111.7208,-7.8135],[111.7002,-7.8121],[111.6931,-7.8079],[111.6955,-7.8012],[111.6906,-7.7914],[111.676,-7.7844],[111.6778,-7.7744],[111.6614,-7.7669],[111.6527,-7.773],[111.6416,-7.7709],[111.6012,-7.7825],[111.592,-7.7954],[111.5731,-7.8049],[111.5542,-7.7992],[111.5507,-7.8046],[111.5086,-7.7994],[111.4693,-7.7772],[111.458,-7.7791],[111.4554,-7.7841],[111.4499,-7.7788],[111.4586,-7.7251]],[[111.5138,-7.6753],[111.5125,-7.6619],[111.5077,-7.6655],[111.5039,-7.6747],[111.5138,-7.6753]],[[111.5083,-7.6804],[111.5093,-7.6787],[111.5075,-7.6778],[111.5083,-7.6804]]]}},{"type":"Feature","properties":{"provinsi":"Jawa Timur","kabkota":"Kabupaten Magetan","lat":-7.6632,"lon":111.3579},"geometry":{"type":"Polygon","coordinates":[[[111.1861,-7.6952],[111.1826,-7.6919],[111.1954,-7.6728],[111.1885,-7.6683],[111.1877,-7.6542],[111.1945,-7.6204],[111.1994,-7.6161],[111.217,-7.6144],[111.2592,-7.5984],[111.2912,-7.6034],[111.3015,-7.5868],[111.3149,-7.583],[111.3164,-7.5888],[111.3544,-7.5704],[111.366,-7.5702],[111.3726,-7.5755],[111.3697,-7.581],[111.3777,-7.5796],[111.3815,-7.5674],[111.3775,-7.5651],[111.3754,-7.5464],[111.3848,-7.5327],[111.3969,-7.5394],[111.4211,-7.5365],[111.4258,-7.5305],[111.4315,-7.531],[111.4392,-7.5174],[111.4607,-7.5171],[111.4649,-7.5081],[111.4773,-7.5159],[111.5019,-7.5143],[111.5119,-7.5236],[111.5082,-7.5364],[111.5129,-7.5514],[111.5043,-7.553],[111.4997,-7.5644],[111.489,-7.5633],[111.475,-7.5893],[111.4735,-7.6081],[111.4687,-7.6148],[111.461,-7.614],[111.4542,-7.6205],[111.4693,-7.6404],[111.4797,-7.64],[111.4792,-7.6343],[111.4872,-7.6329],[111.4824,-7.6397],[111.4873,-7.6416],[111.4844,-7.6625],[111.4912,-7.6578],[111.5009,-7.6589],[111.5056,-7.6496],[111.5124,-7.6522],[111.511,-7.6612],[111.4987,-7.6739],[111.4982,-7.699],[111.4812,-7.7004],[111.4706,-7.7187],[111.4587,-7.7251],[111.4483,-7.7798],[111.4135,-7.7762],[111.3845,-7.7832],[111.3436,-7.7833],[111.3276,-7.8004],[111.315,-7.7923],[111.3077,-7.7977],[111.2902,-7.7941],[111.2829,-7.7836],[111.2936,-7.7606],[111.2851,-7.7544],[111.2898,-7.7431],[111.274,-7.7349],[111.2565,-7.7461],[111.2421,-7.741],[111.2369,-7.7497],[111.2274,-7.7452],[111.2147,-7.7302],[111.2139,-7.723],[111.182,-7.7111],[111.1861,-7.6952]]]}},{"type":"Feature","properties":{"provinsi":"Jawa Timur","kabkota":"Kabupaten Malang","lat":-8.1268,"lon":112.6413},"geometry":{"type":"Polygon","coordinates":[[[112.2991,-7.7694],[112.3112,-7.7767],[112.3287,-7.7771],[112.3493,-7.7611],[112.3667,-7.7684],[112.3819,-7.7849],[112.3968,-7.7854],[112.4181,-7.7743],[112.4222,-7.7669],[112.4304,-7.7714],[112.4359,-7.767],[112.4428,-7.7765],[112.455,-7.7792],[112.4616,-7.7697],[112.4786,-7.7679],[112.4881,-7.7873],[112.4876,-7.8022],[112.4954,-7.8128],[112.4928,-7.8222],[112.4965,-7.8365],[112.4946,-7.854],[112.488,-7.8596],[112.4878,-7.8776],[112.4774,-7.8922],[112.4748,-7.9399],[112.4888,-7.9312],[112.5409,-7.9258],[112.5672,-7.9129],[112.5791,-7.9176],[112.5826,-7.9094],[112.595,-7.9059],[112.5835,-7.8888],[112.5725,-7.8892],[112.5643,-7.8795],[112.5716,-7.8173],[112.5855,-7.7879],[112.5834,-7.7708],[112.5893,-7.7652],[112.6019,-7.7692],[112.6151,-7.7868],[112.6284,-7.7915],[112.6325,-7.7975],[112.6542,-7.797],[112.6616,-7.806],[112.7047,-7.8171],[112.7104,-7.8237],[112.7114,-7.819],[112.7328,-7.818],[112.739,-7.8386],[112.7605,-7.858],[112.7623,-7.8758],[112.7759,-7.87],[112.7807,-7.874],[112.7773,-7.8794],[112.7839,-7.9004],[112.8054,-7.9254],[112.8217,-7.9282],[112.836,-7.941],[112.8562,-7.9397],[112.885,-7.9525],[112.8986,-7.9468],[112.9127,-7.9557],[112.9154,-7.9514],[112.9351,-7.9561],[112.9271,-7.9605],[112.9262,-7.9664],[112.9416,-7.9842],[112.9363,-8.0003],[112.9277,-7.9968],[112.9259,-8.0017],[112.9347,-8.0188],[112.909,-8.0417],[112.9091,-8.0504],[112.8999,-8.0642],[112.9059,-8.0816],[112.9232,-8.087],[112.922,-8.1073],[112.9255,-8.1107],[112.9031,-8.1576],[112.9129,-8.2191],[112.9228,-8.2396],[112.9183,-8.2575],[112.9105,-8.2655],[112.9188,-8.2846],[112.9149,-8.3015],[112.9193,-8.3075],[112.9417,-8.3122],[112.9347,-8.3317],[112.9595,-8.3531],[112.9475,-8.3603],[112.9455,-8.3701],[112.9398,-8.3727],[112.9436,-8.3746],[112.9381,-8.3817],[112.9309,-8.3822],[112.9324,-8.3883],[112.925,-8.3888],[112.9115,-8.3993],[112.9109,-8.3933],[112.9055,-8.3931],[112.9078,-8.3837],[112.8987,-8.3809],[112.893,-8.3882],[112.8988,-8.4019],[112.872,-8.4088],[112.8632,-8.3959],[112.8476,-8.4058],[112.8436,-8.4021],[112.8514,-8.3915],[112.846,-8.3882],[112.8481,-8.3775],[112.8397,-8.3861],[112.8385,-8.3721],[112.8314,-8.369],[112.8205,-8.373],[112.8159,-8.387],[112.8196,-8.3919],[112.8118,-8.4017],[112.8048,-8.3971],[112.7994,-8.4051],[112.7925,-8.4034],[112.7832,-8.3975],[112.7831,-8.3871],[112.7724,-8.3866],[112.7668,-8.3929],[112.7663,-8.4122],[112.7644,-8.4081],[112.7546,-8.4116],[112.7575,-8.4217],[112.7499,-8.4152],[112.7426,-8.425],[112.7398,-8.4162],[112.7302,-8.4201],[112.7089,-8.4179],[112.6825,-8.4335],[112.6753,-8.4427],[112.6516,-8.4478],[112.6324,-8.4298],[112.6245,-8.4288],[112.6172,-8.4341],[112.6106,-8.4217],[112.5862,-8.4185],[112.5743,-8.4085],[112.5569,-8.4028],[112.5265,-8.4054],[112.5165,-8.3959],[112.5027,-8.4049],[112.4723,-8.3932],[112.4433,-8.3984],[112.4209,-8.3816],[112.3937,-8.3806],[112.388,-8.3727],[112.3718,-8.375],[112.3651,-8.3531],[112.359,-8.3485],[112.3714,-8.3109],[112.3806,-8.3057],[112.3851,-8.2851],[112.3813,-8.2463],[112.3717,-8.2374],[112.3882,-8.2362],[112.3934,-8.2278],[112.383,-8.2078],[112.3852,-8.1924],[112.3672,-8.1835],[112.3661,-8.1754],[112.3909,-8.162],[112.3959,-8.1648],[112.4116,-8.1603],[112.4155,-8.166],[112.4178,-8.1597],[112.4303,-8.1591],[112.4402,-8.1488],[112.4536,-8.1441],[112.4585,-8.1151],[112.4532,-8.0978],[112.4579,-8.0688],[112.4534,-8.0569],[112.4645,-8.0297],[112.463,-8.0152],[112.4714,-7.995],[112.4684,-7.9871],[112.4789,-7.9712],[112.4745,-7.9581],[112.4653,-7.9553],[112.4658,-7.9462],[112.4508,-7.9266],[112.4524,-7.9187],[112.4452,-7.9108],[112.3705,-7.9573],[112.3413,-7.9395],[112.3066,-7.9293],[112.3135,-7.9216],[112.312,-7.9047],[112.3233,-7.8922],[112.326,-7.8729],[112.3182,-7.8615],[112.3192,-7.839],[112.3076,-7.8389],[112.3067,-7.7996],[112.2883,-7.7795],[112.2874,-7.7717],[112.2991,-7.7694]],[[112.599,-7.9586],[112.6033,-7.9705],[112.5906,-7.9736],[112.5969,-7.9838],[112.5796,-7.9791],[112.5773,-7.9844],[112.591,-7.9859],[112.5897,-7.9925],[112.6012,-7.9956],[112.5977,-8.0057],[112.6067,-8.0112],[112.6073,-8.0167],[112.618,-8.0141],[112.6136,-8.0209],[112.6309,-8.035],[112.632,-8.046],[112.6565,-8.0501],[112.6753,-8.0299],[112.6721,-8.0091],[112.6835,-8.0065],[112.6946,-7.9822],[112.69,-7.9756],[112.6788,-7.9766],[112.6763,-7.9716],[112.6632,-7.971],[112.6577,-7.9647],[112.6638,-7.958],[112.664,-7.9481],[112.6688,-7.9465],[112.6623,-7.9266],[112.6457,-7.914],[112.6378,-7.9197],[112.6259,-7.9111],[112.6174,-7.9193],[112.6109,-7.9182],[112.6099,-7.9239],[112.5982,-7.9221],[112.5977,-7.9376],[112.5741,-7.9355],[112.5699,-7.9392],[112.599,-7.9586]],[[112.5954,-7.9233],[112.5968,-7.9219],[112.5946,-7.92],[112.5954,-7.9233]]]}},{"type":"Feature","properties":{"provinsi":"Jawa Timur","kabkota":"Kabupaten Mojokerto","lat":-7.5496,"lon":112.4851},"geometry":{"type":"Polygon","coordinates":[[[112.3407,-7.4407],[112.3462,-7.441],[112.3422,-7.4292],[112.3529,-7.4136],[112.346,-7.4097],[112.3484,-7.3999],[112.337,-7.3802],[112.3357,-7.3653],[112.3483,-7.3396],[112.3588,-7.3331],[112.3586,-7.3265],[112.3756,-7.3237],[112.3911,-7.3335],[112.3986,-7.3202],[112.4035,-7.3214],[112.4088,-7.3144],[112.4241,-7.3154],[112.4289,-7.3109],[112.4417,-7.3142],[112.4475,-7.3031],[112.4583,-7.3124],[112.4802,-7.3081],[112.4774,-7.3293],[112.483,-7.3403],[112.4808,-7.3491],[112.473,-7.3536],[112.4793,-7.3636],[112.4741,-7.3727],[112.4835,-7.4013],[112.4875,-7.4037],[112.4935,-7.3994],[112.4946,-7.4085],[112.4835,-7.4103],[112.4835,-7.417],[112.4735,-7.4291],[112.4622,-7.4323],[112.457,-7.4465],[112.4686,-7.4453],[112.488,-7.4597],[112.5119,-7.4668],[112.5689,-7.4787],[112.5826,-7.4927],[112.5933,-7.4955],[112.6007,-7.506],[112.6093,-7.5076],[112.6309,-7.5328],[112.6501,-7.5375],[112.6488,-7.5441],[112.6632,-7.557],[112.6569,-7.569],[112.6527,-7.5968],[112.6317,-7.614],[112.6208,-7.6159],[112.6202,-7.6285],[112.6287,-7.6432],[112.623,-7.6679],[112.6144,-7.6817],[112.5982,-7.6944],[112.5857,-7.7207],[112.5747,-7.7326],[112.5341,-7.724],[112.5296,-7.7349],[112.5151,-7.7407],[112.5123,-7.7511],[112.4986,-7.7552],[112.4889,-7.7646],[112.4634,-7.7687],[112.4558,-7.7791],[112.4478,-7.7648],[112.4477,-7.7418],[112.4386,-7.7329],[112.4303,-7.6998],[112.4117,-7.6735],[112.4107,-7.647],[112.4041,-7.6356],[112.4037,-7.6227],[112.3858,-7.6042],[112.3716,-7.5716],[112.3748,-7.5633],[112.3637,-7.5526],[112.3704,-7.5405],[112.3688,-7.5246],[112.3739,-7.5249],[112.3781,-7.5014],[112.3743,-7.4872],[112.3844,-7.479],[112.3898,-7.4802],[112.3905,-7.47],[112.4036,-7.4666],[112.4044,-7.4613],[112.3507,-7.4547],[112.3417,-7.4597],[112.3328,-7.4536],[112.3407,-7.4407]],[[112.4078,-7.4913],[112.4155,-7.4941],[112.4227,-7.4933],[112.4284,-7.4807],[112.4346,-7.4875],[112.4366,-7.4817],[112.4438,-7.4819],[112.4438,-7.4905],[112.4496,-7.4932],[112.4508,-7.4818],[112.4605,-7.4826],[112.4689,-7.4556],[112.4575,-7.4568],[112.4546,-7.4476],[112.4339,-7.4598],[112.416,-7.4573],[112.4142,-7.4732],[112.4057,-7.4785],[112.4078,-7.4913]]]}},{"type":"Feature","properties":{"provinsi":"Jawa Timur","kabkota":"Kabupaten Nganjuk","lat":-7.5977,"lon":111.9381},"geometry":{"type":"Polygon","coordinates":[[[111.7329,-7.7263],[111.7528,-7.7053],[111.757,-7.6816],[111.7828,-7.6504],[111.7852,-7.6226],[111.7894,-7.6201],[111.7857,-7.603],[111.7943,-7.5899],[111.8021,-7.5489],[111.8142,-7.542],[111.8177,-7.5485],[111.8253,-7.5446],[111.8336,-7.5488],[111.8396,-7.5394],[111.8356,-7.5314],[111.8475,-7.5081],[111.8442,-7.4994],[111.8226,-7.4937],[111.8181,-7.4732],[111.8004,-7.4611],[111.8149,-7.4507],[111.821,-7.4396],[111.8616,-7.4359],[111.8777,-7.441],[111.9053,-7.4333],[111.9398,-7.4403],[111.9598,-7.4269],[111.9561,-7.4165],[111.9424,-7.411],[111.9432,-7.4063],[111.9583,-7.4132],[111.9764,-7.4047],[112.0028,-7.4037],[112.0193,-7.4096],[112.0242,-7.3956],[112.0353,-7.4018],[112.0477,-7.3995],[112.0481,-7.3937],[112.0723,-7.3996],[112.0627,-7.4177],[112.0809,-7.4522],[112.0764,-7.4595],[112.0796,-7.4736],[112.0937,-7.4691],[112.0981,-7.461],[112.1234,-7.4624],[112.125,-7.4521],[112.1283,-7.4581],[112.1569,-7.4656],[112.1592,-7.4765],[112.1643,-7.4786],[112.1647,-7.4894],[112.1689,-7.4907],[112.1521,-7.5057],[112.1508,-7.5292],[112.1442,-7.5354],[112.1342,-7.5353],[112.1116,-7.5658],[112.1134,-7.5894],[112.1031,-7.6096],[112.0983,-7.6441],[112.0854,-7.6582],[112.0828,-7.6729],[112.0759,-7.6787],[112.0763,-7.7015],[112.0591,-7.7235],[112.0271,-7.7258],[112.0206,-7.7425],[112.0215,-7.7625],[112.0025,-7.7531],[111.9976,-7.7294],[111.9882,-7.724],[111.9823,-7.7114],[111.9821,-7.6844],[111.9547,-7.6798],[111.9318,-7.7089],[111.928,-7.7226],[111.8964,-7.7438],[111.8816,-7.7636],[111.8251,-7.8111],[111.8143,-7.8132],[111.8133,-7.8227],[111.7992,-7.8366],[111.7857,-7.8333],[111.7766,-7.8206],[111.7663,-7.8235],[111.7557,-7.8033],[111.7281,-7.7793],[111.7254,-7.7718],[111.7329,-7.7263]],[[112.1609,-7.4797],[112.1621,-7.4793],[112.1616,-7.4781],[112.1609,-7.4797]]]}},{"type":"Feature","properties":{"provinsi":"Jawa Timur","kabkota":"Kabupaten Ngawi","lat":-7.4391,"lon":111.3427},"geometry":{"type":"Polygon","coordinates":[[[111.1454,-7.3685],[111.1413,-7.361],[111.142,-7.3326],[111.1549,-7.3135],[111.1421,-7.3074],[111.137,-7.2975],[111.1411,-7.283],[111.1504,-7.2737],[111.15,-7.2606],[111.1597,-7.258],[111.1775,-7.2644],[111.1996,-7.2554],[111.1979,-7.2465],[111.2043,-7.2446],[111.2218,-7.2526],[111.2237,-7.2615],[111.2353,-7.2703],[111.2439,-7.2852],[111.2864,-7.2892],[111.2953,-7.3],[111.3154,-7.3049],[111.3331,-7.3208],[111.3445,-7.319],[111.3456,-7.3349],[111.3607,-7.3307],[111.374,-7.3442],[111.4163,-7.3488],[111.4316,-7.3645],[111.4525,-7.3748],[111.4625,-7.3776],[111.4637,-7.3716],[111.4568,-7.3682],[111.473,-7.3573],[111.4977,-7.3644],[111.5135,-7.3629],[111.5241,-7.3717],[111.5429,-7.3707],[111.5537,-7.3587],[111.5665,-7.3592],[111.5749,-7.3486],[111.6138,-7.3698],[111.6161,-7.3791],[111.6306,-7.3897],[111.6712,-7.4095],[111.6685,-7.4231],[111.6513,-7.4392],[111.6517,-7.451],[111.6438,-7.4517],[111.6371,-7.4628],[111.6227,-7.4694],[111.6107,-7.4689],[111.6106,-7.4759],[111.6048,-7.4771],[111.5908,-7.5069],[111.5803,-7.5131],[111.5871,-7.5213],[111.5722,-7.5211],[111.5518,-7.5283],[111.547,-7.5373],[111.5604,-7.5399],[111.558,-7.5442],[111.5382,-7.5394],[111.5359,-7.5457],[111.5248,-7.5446],[111.523,-7.5397],[111.5082,-7.5369],[111.5116,-7.5241],[111.502,-7.5144],[111.4772,-7.5159],[111.4618,-7.5093],[111.4602,-7.5176],[111.4395,-7.5178],[111.4328,-7.5298],[111.4215,-7.5364],[111.3969,-7.5394],[111.3854,-7.5335],[111.3794,-7.5414],[111.3739,-7.5398],[111.3684,-7.552],[111.3746,-7.5616],[111.3754,-7.5744],[111.3545,-7.5705],[111.316,-7.5891],[111.3144,-7.5832],[111.3015,-7.587],[111.2911,-7.6037],[111.2586,-7.5985],[111.1951,-7.6201],[111.193,-7.604],[111.169,-7.5903],[111.1539,-7.5639],[111.1524,-7.5418],[111.1463,-7.5276],[111.1521,-7.522],[111.1482,-7.5165],[111.1536,-7.5097],[111.1527,-7.4995],[111.1352,-7.4837],[111.1332,-7.4748],[111.1372,-7.4658],[111.1287,-7.4611],[111.131,-7.4566],[111.1252,-7.4504],[111.1185,-7.4146],[111.1454,-7.3685]],[[111.5512,-7.4469],[111.5578,-7.4562],[111.5536,-7.4379],[111.542,-7.4328],[111.5397,-7.4399],[111.5512,-7.4469]],[[111.1439,-7.3623],[111.1445,-7.3599],[111.1434,-7.3595],[111.1439,-7.3623]]]}},{"type":"Feature","properties":{"provinsi":"Jawa Timur","kabkota":"Kabupaten Pacitan","lat":-8.1266,"lon":111.1791},"geometry":{"type":"Polygon","coordinates":[[[110.909,-8.1239],[110.9212,-8.1178],[110.926,-8.1058],[110.9428,-8.0875],[110.9531,-8.0625],[110.9822,-8.0731],[110.9937,-8.0824],[111.0155,-8.0758],[111.0352,-8.0807],[111.0715,-8.0632],[111.0667,-8.0557],[111.0673,-8.0355],[111.0771,-8.0247],[111.093,-8.0309],[111.0889,-8.0598],[111.0932,-8.0644],[111.1132,-8.0567],[111.1274,-8.0641],[111.1263,-8.0375],[111.1363,-8.0183],[111.1234,-7.9725],[111.1327,-7.9736],[111.1461,-7.9661],[111.1495,-7.954],[111.1435,-7.9435],[111.1439,-7.9333],[111.1527,-7.9243],[111.1829,-7.9188],[111.1932,-7.9329],[111.1924,-7.9394],[111.2113,-7.9369],[111.2165,-7.926],[111.2361,-7.9449],[111.2463,-7.9487],[111.2673,-7.945],[111.2733,-7.9374],[111.2984,-7.941],[111.3163,-7.9363],[111.3265,-7.9552],[111.327,-7.9677],[111.3537,-7.9807],[111.3561,-8.0002],[111.351,-8.0058],[111.3494,-8.0206],[111.3668,-8.0308],[111.3465,-8.0664],[111.3473,-8.0726],[111.3548,-8.0773],[111.3526,-8.0927],[111.36,-8.1065],[111.3478,-8.1072],[111.3472,-8.1142],[111.3551,-8.1161],[111.356,-8.1206],[111.3615,-8.1189],[111.3799,-8.1365],[111.3804,-8.1633],[111.3932,-8.1595],[111.4047,-8.1723],[111.4229,-8.1695],[111.4266,-8.1756],[111.4226,-8.1888],[111.4017,-8.197],[111.4089,-8.2127],[111.3922,-8.2334],[111.4065,-8.2592],[111.3986,-8.2777],[111.3873,-8.2737],[111.387,-8.2779],[111.3773,-8.2765],[111.3755,-8.2662],[111.3669,-8.261],[111.3577,-8.2704],[111.3354,-8.2628],[111.3255,-8.2734],[111.3153,-8.2707],[111.3122,-8.2607],[111.3018,-8.2572],[111.2957,-8.2636],[111.288,-8.2601],[111.2871,-8.2657],[111.2949,-8.2662],[111.2919,-8.2741],[111.2883,-8.2699],[111.2842,-8.2732],[111.2779,-8.2667],[111.2796,-8.2555],[111.2611,-8.2477],[111.2548,-8.2541],[111.2284,-8.2597],[111.2266,-8.2704],[111.2203,-8.2682],[111.2177,-8.261],[111.2114,-8.267],[111.2008,-8.2658],[111.1949,-8.2781],[111.1768,-8.2731],[111.1715,-8.2809],[111.158,-8.2777],[111.1551,-8.285],[111.1526,-8.2783],[111.1436,-8.2813],[111.1321,-8.2732],[111.1381,-8.2672],[111.1369,-8.2624],[111.1263,-8.2582],[111.1219,-8.2608],[111.1249,-8.2564],[111.1201,-8.2533],[111.1094,-8.257],[111.1012,-8.2535],[111.0986,-8.2458],[111.0935,-8.2474],[111.1031,-8.234],[111.095,-8.2219],[111.0748,-8.2236],[111.0767,-8.2458],[111.066,-8.2476],[111.0633,-8.2522],[111.0434,-8.2489],[111.028,-8.257],[111.0196,-8.2481],[111.0066,-8.2472],[110.9979,-8.2533],[110.9823,-8.242],[110.9826,-8.236],[110.9732,-8.2403],[110.9519,-8.2251],[110.9405,-8.2275],[110.9161,-8.2175],[110.9081,-8.2097],[110.8991,-8.1807],[110.909,-8.1239]]]}},{"type":"Feature","properties":{"provinsi":"Jawa Timur","kabkota":"Kabupaten Pamekasan","lat":-7.0651,"lon":113.5036},"geometry":{"type":"Polygon","coordinates":[[[113.3673,-7.1368],[113.3643,-7.1313],[113.3699,-7.1119],[113.3627,-7.1069],[113.3636,-7.1003],[113.3795,-7.0924],[113.3824,-7.0797],[113.3946,-7.0699],[113.3967,-7.0394],[113.3923,-7.0343],[113.4026,-7.0216],[113.4066,-7.0234],[113.4216,-7.0112],[113.4228,-6.9848],[113.429,-6.9802],[113.4366,-6.96],[113.4584,-6.9481],[113.4611,-6.9353],[113.4778,-6.9241],[113.4761,-6.9078],[113.4834,-6.8959],[113.639,-6.8874],[113.6362,-6.9172],[113.6498,-6.9192],[113.6254,-6.9484],[113.6263,-6.9649],[113.6127,-6.9673],[113.6085,-6.9736],[113.6117,-6.9843],[113.6073,-7.0053],[113.6121,-7.0113],[113.5922,-7.0095],[113.5925,-7.0163],[113.5801,-7.0188],[113.5766,-7.0318],[113.5806,-7.0425],[113.598,-7.0389],[113.6047,-7.0424],[113.5913,-7.0612],[113.5999,-7.0629],[113.6007,-7.0686],[113.6066,-7.0692],[113.6184,-7.0834],[113.6215,-7.1021],[113.6114,-7.1057],[113.6017,-7.1287],[113.5727,-7.1621],[113.5739,-7.1715],[113.5664,-7.1828],[113.5657,-7.1941],[113.5565,-7.2023],[113.5608,-7.2103],[113.5496,-7.2306],[113.552,-7.2341],[113.5373,-7.2361],[113.5098,-7.2539],[113.4998,-7.2456],[113.5039,-7.2404],[113.5135,-7.2414],[113.4982,-7.2277],[113.3935,-7.2176],[113.3966,-7.2],[113.3816,-7.1901],[113.3788,-7.2099],[113.3733,-7.1975],[113.3814,-7.1786],[113.3794,-7.1497],[113.3568,-7.1531],[113.3673,-7.1368]]]}},{"type":"Feature","properties":{"provinsi":"Jawa Timur","kabkota":"Kabupaten Pasuruan","lat":-7.7434,"lon":112.8322},"geometry":{"type":"Polygon","coordinates":[[[112.5854,-7.7214],[112.5981,-7.6946],[112.6144,-7.6817],[112.6235,-7.6668],[112.6224,-7.6606],[112.6292,-7.6502],[112.6211,-7.6156],[112.6305,-7.6166],[112.6527,-7.5967],[112.6661,-7.5924],[112.66,-7.5723],[112.6694,-7.5674],[112.68,-7.5494],[112.6888,-7.5515],[112.6947,-7.5459],[112.7052,-7.545],[112.7244,-7.5693],[112.7532,-7.5753],[112.7695,-7.5747],[112.7847,-7.5628],[112.7906,-7.5644],[112.7985,-7.5583],[112.8012,-7.562],[112.8063,-7.5551],[112.8141,-7.5591],[112.8358,-7.5543],[112.8375,-7.5684],[112.8449,-7.5779],[112.8611,-7.5869],[112.8708,-7.5852],[112.8849,-7.6123],[112.9026,-7.6253],[112.8995,-7.6286],[112.8853,-7.6256],[112.8817,-7.618],[112.8691,-7.6164],[112.8741,-7.6178],[112.8761,-7.6388],[112.8697,-7.6552],[112.8736,-7.661],[112.8786,-7.6553],[112.887,-7.6601],[112.8817,-7.6635],[112.8865,-7.6673],[112.8825,-7.6726],[112.8944,-7.6763],[112.8959,-7.6856],[112.9013,-7.6864],[112.9322,-7.6683],[112.9454,-7.6516],[112.9477,-7.6371],[112.957,-7.628],[112.9694,-7.647],[112.9848,-7.6565],[113.0275,-7.6491],[113.0503,-7.6575],[113.0668,-7.6728],[113.0862,-7.7016],[113.0959,-7.7061],[113.085,-7.71],[113.071,-7.7332],[113.0549,-7.7484],[113.0569,-7.7621],[113.0506,-7.7748],[113.0537,-7.7853],[113.0472,-7.82],[113.0277,-7.8339],[112.9848,-7.8789],[112.9696,-7.8877],[112.966,-7.896],[112.9496,-7.9054],[112.953,-7.9429],[112.938,-7.9499],[112.9349,-7.9561],[112.909,-7.9536],[112.8984,-7.9467],[112.885,-7.9523],[112.881,-7.9473],[112.8565,-7.9397],[112.8532,-7.9338],[112.8405,-7.9387],[112.8282,-7.9358],[112.8216,-7.9281],[112.8055,-7.9255],[112.7844,-7.9007],[112.7773,-7.8795],[112.7797,-7.8728],[112.761,-7.865],[112.76,-7.8544],[112.7497,-7.8509],[112.7399,-7.8383],[112.7388,-7.8239],[112.7329,-7.8186],[112.715,-7.8208],[112.6614,-7.8059],[112.6541,-7.7969],[112.6185,-7.7892],[112.6042,-7.771],[112.5878,-7.7626],[112.5875,-7.7535],[112.582,-7.7514],[112.5748,-7.7325],[112.5854,-7.7214]]]}},{"type":"Feature","properties":{"provinsi":"Jawa Timur","kabkota":"Kabupaten Ponorogo","lat":-7.9316,"lon":111.5003},"geometry":{"type":"Polygon","coordinates":[[[111.2994,-7.8784],[111.2978,-7.862],[111.3192,-7.8544],[111.3149,-7.8436],[111.3051,-7.839],[111.3049,-7.8148],[111.2899,-7.794],[111.3076,-7.7975],[111.3147,-7.7922],[111.329,-7.8002],[111.3437,-7.7833],[111.3843,-7.7831],[111.4132,-7.7759],[111.4499,-7.7785],[111.4551,-7.7834],[111.4579,-7.7788],[111.4692,-7.7772],[111.5089,-7.7993],[111.5498,-7.8043],[111.5543,-7.7992],[111.5733,-7.8049],[111.5916,-7.7957],[111.6008,-7.7825],[111.6416,-7.7708],[111.6525,-7.7729],[111.6614,-7.7669],[111.6779,-7.7744],[111.676,-7.7842],[111.6906,-7.7914],[111.6955,-7.8012],[111.6932,-7.808],[111.7002,-7.8121],[111.7208,-7.8135],[111.7328,-7.8013],[111.7559,-7.8036],[111.7665,-7.823],[111.7767,-7.8202],[111.7857,-7.8324],[111.7715,-7.8558],[111.7786,-7.8651],[111.7721,-7.8728],[111.7712,-7.8867],[111.7563,-7.8945],[111.7606,-7.9007],[111.7584,-7.9062],[111.7547,-7.908],[111.7549,-7.8974],[111.7434,-7.8885],[111.7325,-7.8949],[111.7013,-7.8963],[111.7045,-7.9064],[111.6921,-7.9196],[111.6918,-7.931],[111.6695,-7.9448],[111.6592,-7.9452],[111.6551,-7.9408],[111.6377,-7.9608],[111.6384,-7.9661],[111.6616,-7.9713],[111.6534,-7.9834],[111.6623,-7.9948],[111.6577,-7.9979],[111.6533,-8.0205],[111.6476,-8.022],[111.6464,-8.0121],[111.6331,-8.0041],[111.6202,-8.0086],[111.6098,-8.0067],[111.607,-8.0189],[111.5958,-8.0179],[111.5816,-8.026],[111.5731,-8.048],[111.5339,-8.0605],[111.5429,-8.0691],[111.5271,-8.0812],[111.5284,-8.1012],[111.5219,-8.1089],[111.5066,-8.1067],[111.5047,-8.1139],[111.4828,-8.1086],[111.4794,-8.1175],[111.483,-8.1259],[111.4731,-8.1437],[111.4759,-8.1699],[111.465,-8.1755],[111.4559,-8.1676],[111.4375,-8.1643],[111.4314,-8.1703],[111.4056,-8.1726],[111.3927,-8.1594],[111.382,-8.1642],[111.3777,-8.1598],[111.38,-8.1368],[111.3688,-8.1308],[111.3615,-8.1191],[111.3559,-8.1207],[111.3479,-8.1149],[111.3464,-8.1091],[111.36,-8.1065],[111.352,-8.0927],[111.3545,-8.0773],[111.3472,-8.0727],[111.3463,-8.0662],[111.367,-8.033],[111.3492,-8.021],[111.351,-8.0058],[111.3561,-8.0],[111.3553,-7.9841],[111.3513,-7.9777],[111.327,-7.9677],[111.3264,-7.9553],[111.3162,-7.9363],[111.3069,-7.9337],[111.2888,-7.9384],[111.2797,-7.9178],[111.2994,-7.8784]]]}},{"type":"Feature","properties":{"provinsi":"Jawa Timur","kabkota":"Kabupaten Probolinggo","lat":-7.8666,"lon":113.3215},"geometry":{"type":"MultiPolygon","coordinates":[[[[112.9376,-7.9504],[112.9526,-7.9454],[112.9567,-7.9171],[112.9493,-7.9061],[112.9551,-7.8995],[112.9684,-7.9001],[112.9672,-7.8946],[112.99,-7.8696],[113.0474,-7.8195],[113.0537,-7.7853],[113.0502,-7.7759],[113.0569,-7.7621],[113.0547,-7.7482],[113.0693,-7.7354],[113.0881,-7.7074],[113.0964,-7.7063],[113.1151,-7.7254],[113.1249,-7.7222],[113.1401,-7.726],[113.1548,-7.7421],[113.17,-7.738],[113.1675,-7.728],[113.1728,-7.7268],[113.1798,-7.7444],[113.1763,-7.7518],[113.1647,-7.7578],[113.168,-7.7614],[113.1642,-7.779],[113.179,-7.7834],[113.1772,-7.7888],[113.1822,-7.7909],[113.1773,-7.8106],[113.2,-7.8124],[113.2051,-7.8042],[113.2082,-7.8058],[113.2039,-7.8132],[113.2082,-7.8257],[113.2153,-7.8244],[113.2257,-7.803],[113.2394,-7.806],[113.2422,-7.7946],[113.2371,-7.7906],[113.2372,-7.7585],[113.2329,-7.756],[113.2372,-7.7403],[113.2469,-7.7454],[113.255,-7.7426],[113.2568,-7.7541],[113.2713,-7.7771],[113.2873,-7.7834],[113.2897,-7.7759],[113.305,-7.768],[113.3169,-7.7682],[113.3244,-7.7762],[113.345,-7.7711],[113.372,-7.751],[113.382,-7.7362],[113.3886,-7.7441],[113.3935,-7.7381],[113.4022,-7.7405],[113.4115,-7.7345],[113.4387,-7.7341],[113.4688,-7.7152],[113.4712,-7.7065],[113.4913,-7.6977],[113.5461,-7.7135],[113.5627,-7.7142],[113.5793,-7.7081],[113.5979,-7.7153],[113.5907,-7.7168],[113.5883,-7.7265],[113.579,-7.7262],[113.5726,-7.7421],[113.5766,-7.7563],[113.6007,-7.7753],[113.6061,-7.7989],[113.5923,-7.8056],[113.6116,-7.8252],[113.6024,-7.8451],[113.6173,-7.8732],[113.6151,-7.887],[113.6233,-7.8951],[113.6263,-7.917],[113.6111,-7.9501],[113.6223,-7.9524],[113.6156,-7.9579],[113.6238,-7.9615],[113.6293,-7.9722],[113.6361,-7.9656],[113.6436,-7.9731],[113.6276,-7.976],[113.627,-7.9818],[113.6189,-7.9835],[113.6147,-7.9927],[113.6056,-7.9891],[113.6025,-7.9796],[113.5924,-7.9792],[113.5874,-7.9858],[113.5608,-7.9866],[113.5525,-7.9982],[113.5301,-8.0083],[113.5281,-8.0169],[113.4944,-8.0051],[113.4899,-7.9971],[113.4802,-7.9926],[113.4763,-7.9969],[113.482,-8.0083],[113.4794,-8.0176],[113.4583,-8.0247],[113.4444,-8.0244],[113.4413,-8.0167],[113.4336,-8.0213],[113.4254,-8.0112],[113.4087,-8.0132],[113.3916,-7.9977],[113.3872,-8.0137],[113.363,-8.0277],[113.3671,-8.0211],[113.3607,-7.9931],[113.3465,-7.9755],[113.3414,-7.9426],[113.3324,-7.941],[113.3216,-7.9277],[113.2747,-7.9253],[113.2741,-7.9191],[113.2681,-7.9178],[113.268,-7.9032],[113.263,-7.8973],[113.2566,-7.9069],[113.2485,-7.9077],[113.2079,-7.898],[113.2118,-7.9112],[113.2061,-7.9257],[113.1905,-7.9449],[113.1548,-7.9708],[113.1495,-7.9798],[113.1361,-7.9766],[113.1147,-7.9917],[113.1041,-7.9809],[113.0698,-7.9818],[113.0631,-7.9875],[113.0643,-7.9983],[113.0589,-8.01],[113.0359,-7.9804],[113.0088,-7.9634],[112.9931,-7.9601],[112.976,-7.9792],[112.9508,-7.9866],[112.9407,-7.9819],[112.9449,-7.9752],[112.9343,-7.973],[112.9278,-7.9649],[112.9376,-7.9504]]],[[[113.2501,-7.6774],[113.2617,-7.6766],[113.2566,-7.6811],[113.2428,-7.6804],[113.2501,-7.6774]]]]}},{"type":"Feature","properties":{"provinsi":"Jawa Timur","kabkota":"Kabupaten Sampang","lat":-7.0517,"lon":113.2564},"geometry":{"type":"MultiPolygon","coordinates":[[[[113.0449,-7.2015],[113.0514,-7.2024],[113.0566,-7.195],[113.061,-7.1957],[113.0609,-7.1899],[113.0482,-7.1843],[113.0564,-7.175],[113.0576,-7.1637],[113.0702,-7.1625],[113.077,-7.151],[113.0973,-7.1569],[113.0924,-7.1332],[113.1038,-7.1254],[113.1071,-7.1081],[113.1137,-7.1144],[113.116,-7.104],[113.108,-7.0776],[113.1202,-7.0795],[113.1198,-7.067],[113.112,-7.0597],[113.1107,-7.0476],[113.1161,-7.0484],[113.1152,-7.0317],[113.1332,-7.0357],[113.1336,-7.0236],[113.1423,-7.014],[113.1388,-7.0054],[113.146,-6.9975],[113.1475,-6.9839],[113.1338,-6.9773],[113.1127,-6.9888],[113.105,-6.987],[113.1089,-6.9741],[113.1024,-6.9602],[113.108,-6.954],[113.0951,-6.9462],[113.1015,-6.9319],[113.1156,-6.9364],[113.1188,-6.9051],[113.1274,-6.9048],[113.1245,-6.8927],[113.1594,-6.8944],[113.1673,-6.8902],[113.2004,-6.8971],[113.2271,-6.8908],[113.2951,-6.889],[113.3119,-6.8928],[113.3235,-6.8881],[113.4179,-6.8867],[113.4834,-6.8959],[113.4761,-6.908],[113.4778,-6.9242],[113.4611,-6.9353],[113.4585,-6.9481],[113.4366,-6.96],[113.4293,-6.9802],[113.4228,-6.9848],[113.4216,-7.0114],[113.3943,-7.0306],[113.3935,-7.0732],[113.3824,-7.0797],[113.3795,-7.0924],[113.3632,-7.1013],[113.3627,-7.1069],[113.3699,-7.1116],[113.3644,-7.1312],[113.3675,-7.138],[113.3587,-7.1447],[113.3568,-7.1529],[113.3794,-7.1495],[113.3814,-7.1787],[113.3733,-7.1975],[113.3787,-7.2098],[113.3816,-7.1901],[113.3967,-7.2],[113.3935,-7.2176],[113.2759,-7.2154],[113.2621,-7.2248],[113.2205,-7.2201],[113.1699,-7.2274],[113.1628,-7.2094],[113.1562,-7.2063],[113.1447,-7.2128],[113.1498,-7.2165],[113.1502,-7.2242],[113.0979,-7.2285],[113.0404,-7.2129],[113.0449,-7.2015]]],[[[113.2056,-7.3063],[113.2247,-7.311],[113.2141,-7.3146],[113.2022,-7.3093],[113.2056,-7.3063]]]]}},{"type":"Feature","properties":{"provinsi":"Jawa Timur","kabkota":"Kabupaten Sidoarjo","lat":-7.4515,"lon":112.6989},"geometry":{"type":"Polygon","coordinates":[[[112.4622,-7.4321],[112.4735,-7.429],[112.485,-7.4092],[112.507,-7.4067],[112.5251,-7.3972],[112.5292,-7.4036],[112.5339,-7.4008],[112.5439,-7.4047],[112.5663,-7.3979],[112.5679,-7.3879],[112.572,-7.3919],[112.5837,-7.3833],[112.5889,-7.3701],[112.5968,-7.3722],[112.6301,-7.3678],[112.6427,-7.3608],[112.6533,-7.3621],[112.6624,-7.3516],[112.6783,-7.3505],[112.7046,-7.3362],[112.7275,-7.3485],[112.7417,-7.3451],[112.743,-7.3408],[112.7532,-7.3423],[112.7554,-7.3367],[112.7677,-7.3417],[112.7774,-7.3401],[112.7835,-7.3455],[112.827,-7.3456],[112.8308,-7.3372],[112.8384,-7.3345],[112.8412,-7.3408],[112.8331,-7.3831],[112.8325,-7.4193],[112.8375,-7.4716],[112.8344,-7.4766],[112.8179,-7.4735],[112.8129,-7.4796],[112.8381,-7.514],[112.8652,-7.5196],[112.8731,-7.5343],[112.8665,-7.5498],[112.8687,-7.5576],[112.8639,-7.5612],[112.8542,-7.5584],[112.8581,-7.5649],[112.8592,-7.5617],[112.8646,-7.5644],[112.8609,-7.5686],[112.8634,-7.5731],[112.8505,-7.5783],[112.8382,-7.5694],[112.8319,-7.5526],[112.8164,-7.5589],[112.8065,-7.5551],[112.8014,-7.562],[112.7837,-7.5629],[112.7675,-7.5742],[112.7532,-7.5752],[112.7244,-7.5692],[112.7056,-7.545],[112.6832,-7.5471],[112.6741,-7.5504],[112.6724,-7.5581],[112.6658,-7.558],[112.6487,-7.5441],[112.6498,-7.5375],[112.6308,-7.5327],[112.6093,-7.5077],[112.6007,-7.506],[112.5934,-7.4955],[112.5826,-7.4927],[112.5684,-7.4785],[112.4886,-7.4599],[112.4685,-7.4453],[112.4567,-7.447],[112.4622,-7.4321]],[[112.7997,-7.5603],[112.7992,-7.5584],[112.798,-7.5588],[112.7997,-7.5603]]]}},{"type":"Feature","properties":{"provinsi":"Jawa Timur","kabkota":"Kabupaten Situbondo","lat":-7.7989,"lon":114.2676},"geometry":{"type":"Polygon","coordinates":[[[113.5787,-7.7266],[113.5889,-7.7261],[113.5907,-7.7166],[113.5979,-7.7153],[113.6102,-7.7229],[113.6475,-7.7235],[113.6663,-7.737],[113.7131,-7.708],[113.7237,-7.7213],[113.7633,-7.7378],[113.7964,-7.727],[113.8171,-7.6994],[113.8311,-7.6884],[113.8621,-7.6845],[113.8682,-7.68],[113.8959,-7.6963],[113.9306,-7.7004],[113.9395,-7.6771],[113.9545,-7.6789],[113.9723,-7.6515],[114.004,-7.6352],[114.0323,-7.6062],[114.0313,-7.6097],[114.0443,-7.6132],[114.0411,-7.607],[114.0348,-7.6069],[114.0385,-7.6045],[114.0604,-7.6237],[114.1071,-7.7067],[114.1234,-7.7071],[114.1349,-7.7137],[114.1658,-7.7152],[114.1878,-7.7126],[114.1949,-7.7076],[114.2081,-7.718],[114.2404,-7.6981],[114.2938,-7.7478],[114.3098,-7.7463],[114.3185,-7.7559],[114.3287,-7.7583],[114.3507,-7.7535],[114.371,-7.757],[114.3589,-7.7489],[114.3741,-7.7489],[114.3935,-7.7709],[114.4044,-7.7701],[114.4297,-7.7888],[114.4403,-7.7896],[114.4585,-7.8089],[114.468,-7.8347],[114.4656,-7.8566],[114.4598,-7.8627],[114.4645,-7.8867],[114.4235,-7.9169],[114.4238,-7.9355],[114.4132,-7.9402],[114.3965,-7.9268],[114.3328,-7.9069],[114.3067,-7.8853],[114.2993,-7.8857],[114.2834,-7.897],[114.2713,-7.9196],[114.2498,-7.9392],[114.2243,-7.9867],[114.2117,-7.9778],[114.1746,-7.9694],[114.1413,-7.9813],[114.1276,-7.993],[114.1277,-7.9755],[114.1135,-7.9421],[114.1108,-7.9091],[114.0925,-7.8754],[114.0952,-7.8395],[114.0892,-7.8243],[114.088,-7.8017],[114.0749,-7.7832],[114.0792,-7.7707],[114.0645,-7.7566],[114.0119,-7.7626],[114.0063,-7.7591],[113.9999,-7.7721],[113.989,-7.781],[113.9508,-7.7655],[113.936,-7.7771],[113.9368,-7.7917],[113.9185,-7.789],[113.9057,-7.7957],[113.904,-7.8036],[113.8764,-7.7911],[113.8723,-7.7975],[113.8645,-7.7934],[113.8496,-7.7956],[113.8359,-7.8127],[113.8208,-7.8111],[113.8041,-7.8166],[113.7933,-7.8028],[113.7687,-7.7952],[113.7662,-7.7984],[113.7474,-7.7962],[113.7396,-7.789],[113.7225,-7.879],[113.7071,-7.8854],[113.6999,-7.8994],[113.6891,-7.9032],[113.6733,-7.9189],[113.6629,-7.9217],[113.6604,-7.9385],[113.6238,-7.9615],[113.6155,-7.9578],[113.6223,-7.9525],[113.611,-7.9496],[113.6263,-7.917],[113.6233,-7.8951],[113.6151,-7.8871],[113.6173,-7.8732],[113.6024,-7.8452],[113.6116,-7.825],[113.5922,-7.8054],[113.6051,-7.7995],[113.6026,-7.7818],[113.5921,-7.7649],[113.5764,-7.7562],[113.5787,-7.7266]],[[114.4628,-7.8467],[114.4606,-7.8482],[114.4614,-7.849],[114.4628,-7.8467]]]}},{"type":"Feature","properties":{"provinsi":"Jawa Timur","kabkota":"Kabupaten Sumenep","lat":-6.9905,"lon":113.8211},"geometry":{"type":"MultiPolygon","coordinates":[[[[113.5822,-7.0199],[113.5945,-7.016],[113.5952,-7.0112],[113.6189,-7.0098],[113.6092,-7.0002],[113.6122,-6.9812],[113.6084,-6.9741],[113.6258,-6.9657],[113.6317,-6.9386],[113.6384,-6.9391],[113.6388,-6.9298],[113.6497,-6.9196],[113.6362,-6.9148],[113.6425,-6.8871],[113.6691,-6.8829],[113.7299,-6.8874],[113.773,-6.8831],[113.7962,-6.8855],[113.9083,-6.8634],[113.9667,-6.8728],[114.0953,-6.9314],[114.1066,-6.9415],[114.1248,-6.9774],[114.1141,-6.9825],[114.0929,-6.9801],[114.0594,-7.0031],[114.0433,-7.0078],[113.9892,-7.0087],[113.9753,-7.0218],[113.9652,-7.0397],[113.963,-7.0421],[113.9641,-7.039],[113.9468,-7.0422],[113.9482,-7.0364],[113.9444,-7.0385],[113.938,-7.0338],[113.9428,-7.0284],[113.9245,-7.0215],[113.9207,-7.0308],[113.9451,-7.043],[113.9477,-7.0528],[113.9412,-7.0574],[113.9159,-7.0431],[113.8802,-7.0742],[113.8704,-7.0952],[113.8887,-7.1045],[113.8949,-7.1231],[113.8925,-7.1325],[113.8856,-7.1342],[113.8162,-7.1332],[113.7966,-7.1251],[113.6831,-7.1087],[113.6729,-7.1108],[113.6549,-7.1276],[113.6434,-7.1292],[113.6355,-7.1237],[113.6021,-7.1285],[113.6114,-7.1056],[113.6222,-7.1033],[113.6214,-7.0854],[113.6002,-7.0628],[113.5934,-7.0618],[113.6052,-7.0429],[113.5976,-7.038],[113.5831,-7.0414],[113.5792,-7.0339],[113.5822,-7.0199]]],[[[115.2071,-6.8899],[115.2206,-6.8829],[115.2398,-6.8859],[115.2428,-6.8791],[115.2389,-6.8729],[115.2445,-6.8745],[115.2536,-6.8625],[115.2486,-6.8445],[115.2361,-6.838],[115.2273,-6.8429],[115.2279,-6.838],[115.2467,-6.8273],[115.2629,-6.8269],[115.319,-6.8345],[115.3935,-6.8348],[115.4366,-6.8467],[115.5189,-6.8817],[115.5426,-6.9017],[115.5569,-6.9042],[115.5645,-6.9224],[115.5759,-6.9323],[115.5703,-6.9433],[115.5531,-6.9523],[115.55,-6.9658],[115.523,-6.9475],[115.5184,-6.9526],[115.5053,-6.9516],[115.5019,-6.9554],[115.5077,-6.9592],[115.5043,-6.9593],[115.486,-6.9441],[115.4971,-6.9419],[115.4935,-6.9357],[115.4885,-6.9369],[115.4879,-6.9293],[115.4824,-6.9338],[115.4766,-6.931],[115.4792,-6.9253],[115.4753,-6.9234],[115.4674,-6.9308],[115.4593,-6.9335],[115.4579,-6.9283],[115.4543,-6.9316],[115.4612,-6.9221],[115.4555,-6.921],[115.4558,-6.9136],[115.4472,-6.9112],[115.446,-6.9246],[115.4421,-6.9194],[115.4364,-6.92],[115.4406,-6.9294],[115.4352,-6.9332],[115.4374,-6.9459],[115.4336,-6.9419],[115.4341,-6.9477],[115.4302,-6.9378],[115.4351,-6.93],[115.4318,-6.9177],[115.4222,-6.9168],[115.4245,-6.9322],[115.4182,-6.9285],[115.4185,-6.937],[115.409,-6.9311],[115.4066,-6.924],[115.3994,-6.9266],[115.3984,-6.9078],[115.3906,-6.9043],[115.3839,-6.911],[115.3816,-6.9233],[115.3764,-6.8994],[115.3647,-6.9104],[115.37,-6.9159],[115.3653,-6.9245],[115.369,-6.9292],[115.3588,-6.9248],[115.3546,-6.9162],[115.3498,-6.925],[115.3374,-6.9185],[115.3335,-6.9222],[115.3386,-6.9321],[115.3307,-6.9314],[115.3386,-6.9367],[115.3381,-6.9473],[115.3441,-6.9374],[115.3512,-6.9367],[115.352,-6.942],[115.3652,-6.9442],[115.3586,-6.9513],[115.3618,-6.9551],[115.3762,-6.9515],[115.3849,-6.9578],[115.3915,-6.9745],[115.3776,-6.9751],[115.387,-6.9816],[115.3969,-6.9789],[115.4035,-6.9888],[115.3809,-6.9952],[115.3618,-6.9918],[115.3334,-6.9957],[115.3155,-6.9699],[115.3219,-6.9706],[115.326,-6.9621],[115.3185,-6.9623],[115.314,-6.9515],[115.3114,-6.9557],[115.3029,-6.9484],[115.2991,-6.9575],[115.3094,-6.9777],[115.2873,-6.9719],[115.2895,-6.9801],[115.3005,-6.9884],[115.3009,-6.998],[115.2921,-7.0055],[115.293,-7.0127],[115.2739,-6.9944],[115.2666,-6.9944],[115.2643,-6.9847],[115.2473,-6.9768],[115.2444,-6.9706],[115.258,-6.9701],[115.2507,-6.9597],[115.2624,-6.9677],[115.2562,-6.9549],[115.2737,-6.9489],[115.2756,-6.9434],[115.2702,-6.9415],[115.2699,-6.9356],[115.2628,-6.9356],[115.2473,-6.948],[115.241,-6.9339],[115.2357,-6.9443],[115.2241,-6.9347],[115.2113,-6.9424],[115.2032,-6.9372],[115.2107,-6.9237],[115.2067,-6.9198],[115.2076,-6.9268],[115.2039,-6.9269],[115.1981,-6.9214],[115.2071,-6.8899]],[[115.5196,-6.9458],[115.5186,-6.9451],[115.5178,-6.9459],[115.5196,-6.9458]],[[115.505,-6.9511],[115.5136,-6.946],[115.5075,-6.9462],[115.505,-6.9511]],[[115.4987,-6.9538],[115.501,-6.9546],[115.5029,-6.9514],[115.4984,-6.9492],[115.4987,-6.9538]],[[115.4099,-6.9287],[115.411,-6.929],[115.4113,-6.9279],[115.4099,-6.9287]],[[115.3246,-6.9714],[115.3242,-6.9704],[115.3226,-6.9709],[115.3246,-6.9714]],[[115.2631,-6.9811],[115.2627,-6.9823],[115.2638,-6.9827],[115.2631,-6.9811]],[[115.2587,-6.9711],[115.2611,-6.9721],[115.2615,-6.9691],[115.2587,-6.9711]],[[115.2069,-6.9339],[115.2084,-6.9359],[115.2093,-6.9336],[115.2069,-6.9339]],[[115.2053,-6.909],[115.2077,-6.9121],[115.2082,-6.9108],[115.2053,-6.909]]],[[[114.304,-7.0619],[114.3353,-7.0568],[114.3712,-7.0874],[114.3764,-7.1153],[114.3921,-7.1335],[114.3946,-7.1535],[114.4075,-7.1653],[114.4061,-7.1699],[114.3893,-7.1806],[114.3724,-7.1797],[114.3165,-7.1596],[114.2985,-7.143],[114.2801,-7.1104],[114.2758,-7.0964],[114.279,-7.0862],[114.304,-7.0619]]],[[[115.7534,-7.146],[115.7624,-7.1222],[115.7676,-7.1198],[115.7715,-7.1266],[115.766,-7.1315],[115.775,-7.1491],[115.7714,-7.1369],[115.7788,-7.1292],[115.7805,-7.1194],[115.7767,-7.1169],[115.7828,-7.1097],[115.797,-7.1212],[115.7987,-7.1282],[115.7933,-7.138],[115.802,-7.147],[115.8085,-7.1469],[115.809,-7.1541],[115.8205,-7.1482],[115.8355,-7.1491],[115.843,-7.1624],[115.8606,-7.1583],[115.8691,-7.1633],[115.8699,-7.1551],[115.885,-7.1643],[115.8929,-7.1593],[115.8923,-7.1498],[115.8876,-7.1469],[115.8873,-7.1541],[115.8799,-7.1599],[115.8734,-7.1515],[115.8705,-7.1319],[115.8881,-7.1204],[115.8932,-7.1263],[115.8923,-7.138],[115.899,-7.1161],[115.8913,-7.1102],[115.9069,-7.1028],[115.8947,-7.1934],[115.8797,-7.2021],[115.828,-7.206],[115.8147,-7.196],[115.757,-7.1732],[115.7413,-7.1532],[115.7534,-7.146]],[[115.7638,-7.1296],[115.7655,-7.1302],[115.7658,-7.129],[115.7638,-7.1296]]],[[[113.9387,-7.0639],[113.9513,-7.0552],[113.9592,-7.0656],[113.9751,-7.0718],[114.0133,-7.0699],[114.0461,-7.0744],[114.0529,-7.0796],[114.0633,-7.1109],[114.0467,-7.113],[114.0123,-7.1051],[113.9847,-7.1057],[113.949,-7.0883],[113.9412,-7.0895],[113.9387,-7.0639]]],[[[115.5704,-6.9557],[115.5762,-6.9615],[115.5722,-6.9454],[115.5892,-6.9406],[115.6461,-6.9692],[115.6738,-6.9893],[115.6838,-7.0005],[115.6853,-7.0127],[115.6784,-7.0132],[115.6483,-6.9974],[115.6407,-6.9969],[115.632,-7.0055],[115.6238,-7.0009],[115.6152,-7.003],[115.6006,-6.9927],[115.5905,-6.9935],[115.5921,-6.9789],[115.5842,-6.9743],[115.5725,-6.9754],[115.5652,-6.9603],[115.5704,-6.9557]]],[[[114.4825,-7.1383],[114.5012,-7.1366],[114.4993,-7.1428],[114.5081,-7.1447],[114.5156,-7.1416],[114.5148,-7.1354],[114.5335,-7.1282],[114.563,-7.1325],[114.5752,-7.1282],[114.5791,-7.1322],[114.6126,-7.1393],[114.6157,-7.1525],[114.6105,-7.161],[114.5759,-7.1659],[114.5729,-7.1568],[114.5665,-7.157],[114.5654,-7.1511],[114.5515,-7.1418],[114.5091,-7.1451],[114.5107,-7.1541],[114.4894,-7.1594],[114.4768,-7.1481],[114.4825,-7.1383]]],[[[114.3973,-5.5508],[114.3939,-5.5425],[114.4131,-5.5324],[114.4131,-5.5452],[114.4183,-5.5517],[114.4217,-5.546],[114.4294,-5.5519],[114.4313,-5.5459],[114.439,-5.5448],[114.44,-5.5499],[114.4518,-5.547],[114.4508,-5.5613],[114.4548,-5.5652],[114.4465,-5.5724],[114.4472,-5.579],[114.4348,-5.588],[114.4224,-5.59],[114.4172,-5.5741],[114.406,-5.5693],[114.3975,-5.5713],[114.3934,-5.5646],[114.3973,-5.5508]]],[[[113.8935,-7.1863],[113.9258,-7.1742],[113.9402,-7.1997],[113.9396,-7.2146],[113.9562,-7.2309],[113.947,-7.2298],[113.9306,-7.2044],[113.8897,-7.2123],[113.8805,-7.2006],[113.8935,-7.1863]]],[[[115.519,-6.9979],[115.5448,-6.982],[115.5452,-6.9984],[115.5411,-6.9928],[115.5362,-7.0029],[115.5549,-7.0132],[115.5484,-7.0263],[115.5415,-7.0279],[115.5386,-7.0226],[115.5338,-7.0342],[115.5287,-7.0341],[115.5169,-7.0177],[115.5043,-7.0143],[115.519,-6.9979]],[[115.5394,-7.0161],[115.5436,-7.0111],[115.5386,-7.01],[115.5394,-7.0161]],[[115.5399,-7.0208],[115.5389,-7.018],[115.5376,-7.0212],[115.5399,-7.0208]]],[[[115.4302,-6.9787],[115.4506,-6.9819],[115.4518,-6.9756],[115.4578,-6.9807],[115.4645,-6.977],[115.4625,-6.9721],[115.4674,-6.9767],[115.4642,-6.9909],[115.4764,-7.0057],[115.4371,-7.0005],[115.4256,-6.9852],[115.4302,-6.9787]]],[[[114.5983,-5.0491],[114.6096,-5.043],[114.6121,-5.0739],[114.6038,-5.0975],[114.5897,-5.0909],[114.5937,-5.0741],[114.5881,-5.0643],[114.5983,-5.0491]]],[[[113.7549,-7.2061],[113.7926,-7.2162],[113.8038,-7.214],[113.8125,-7.2208],[113.7943,-7.2362],[113.7593,-7.2185],[113.7491,-7.2179],[113.7549,-7.2061]]],[[[115.6004,-7.0445],[115.5965,-7.0382],[115.6135,-7.0373],[115.6268,-7.0421],[115.6301,-7.0346],[115.6366,-7.0364],[115.6366,-7.0592],[115.6305,-7.0648],[115.6156,-7.0625],[115.6133,-7.0554],[115.6173,-7.0484],[115.596,-7.0529],[115.6004,-7.0445]]],[[[114.1709,-6.9668],[114.1832,-6.9679],[114.1873,-6.9779],[114.1823,-7.003],[114.1654,-7.0019],[114.1623,-6.9941],[114.1709,-6.9668]]],[[[114.4136,-5.4287],[114.4228,-5.4296],[114.4383,-5.4467],[114.4387,-5.4571],[114.4253,-5.4606],[114.4095,-5.4398],[114.4136,-5.4287]]],[[[115.649,-7.0452],[115.6601,-7.0406],[115.6752,-7.0622],[115.668,-7.0665],[115.6558,-7.0653],[115.6483,-7.055],[115.649,-7.0452]]],[[[115.6864,-7.0562],[115.708,-7.0582],[115.7121,-7.0694],[115.6959,-7.0732],[115.6842,-7.0627],[115.6864,-7.0562]]],[[[115.7886,-6.9372],[115.7907,-6.9365],[115.7965,-6.947],[115.7944,-6.9576],[115.7889,-6.9633],[115.7785,-6.9625],[115.7886,-6.9372]]],[[[115.9178,-6.9506],[115.9214,-6.9516],[115.9309,-6.9611],[115.9057,-6.9624],[115.9003,-6.9545],[115.9178,-6.9506]],[[115.9194,-6.9518],[115.9183,-6.9513],[115.9178,-6.9523],[115.9194,-6.9518]]],[[[115.7553,-7.0862],[115.7614,-7.0844],[115.7655,-7.0884],[115.7558,-7.1079],[115.7485,-7.1009],[115.7553,-7.0862]]],[[[116.2461,-6.9351],[116.2619,-6.9442],[116.2467,-6.95],[116.2347,-6.9432],[116.2461,-6.9351]]],[[[114.6685,-7.1588],[114.6845,-7.1633],[114.6594,-7.1693],[114.6569,-7.1676],[114.6685,-7.1588]]],[[[115.8736,-6.9447],[115.8789,-6.9525],[115.8744,-6.9615],[115.8683,-6.9612],[115.8675,-6.9518],[115.8736,-6.9447]]],[[[115.7605,-7.1147],[115.7572,-7.112],[115.7597,-7.1059],[115.7706,-7.1101],[115.7702,-7.1155],[115.7597,-7.1187],[115.7563,-7.1153],[115.7605,-7.1147]]],[[[115.4114,-6.965],[115.4159,-6.96],[115.4159,-6.985],[115.409,-6.9791],[115.4114,-6.965]]],[[[115.758,-6.966],[115.761,-6.9671],[115.7617,-6.9702],[115.7561,-6.9763],[115.748,-6.9711],[115.758,-6.966]],[[115.7591,-6.9677],[115.7586,-6.9667],[115.7561,-6.9683],[115.7591,-6.9677]]],[[[114.6101,-7.1626],[114.6175,-7.1667],[114.6102,-7.1721],[114.6046,-7.1699],[114.6101,-7.1626]]],[[[114.4286,-6.9724],[114.4331,-6.964],[114.4368,-6.9685],[114.4311,-6.9799],[114.4286,-6.9724]]],[[[115.864,-7.1477],[115.8638,-7.1511],[115.8513,-7.1477],[115.8506,-7.1425],[115.864,-7.1477]]],[[[115.582,-6.9851],[115.5876,-6.9897],[115.5852,-6.9955],[115.5779,-6.9913],[115.582,-6.9851]]],[[[114.7739,-7.1236],[114.7788,-7.1171],[114.7818,-7.1201],[114.7749,-7.1317],[114.7739,-7.1236]]],[[[115.7053,-7.0021],[115.7088,-7.0007],[115.7119,-7.0049],[115.7043,-7.0088],[115.7053,-7.0021]]],[[[114.6839,-7.0931],[114.6869,-7.0965],[114.6843,-7.0993],[114.6767,-7.0982],[114.6839,-7.0931]]],[[[115.5222,-6.9536],[115.5244,-6.9534],[115.5258,-6.9594],[115.5181,-6.9601],[115.5222,-6.9536]]]]}},{"type":"Feature","properties":{"provinsi":"Jawa Timur","kabkota":"Kabupaten Trenggalek","lat":-8.1659,"lon":111.6251},"geometry":{"type":"Polygon","coordinates":[[[111.4086,-8.2128],[111.4014,-8.1966],[111.4226,-8.1887],[111.4248,-8.1703],[111.4328,-8.1698],[111.4378,-8.1632],[111.4586,-8.1688],[111.4647,-8.1752],[111.4752,-8.1713],[111.4723,-8.143],[111.4831,-8.1249],[111.4794,-8.1176],[111.4826,-8.1088],[111.5005,-8.1095],[111.5047,-8.1139],[111.5062,-8.1066],[111.5196,-8.11],[111.5265,-8.1048],[111.527,-8.0812],[111.5429,-8.0691],[111.5341,-8.06],[111.5731,-8.048],[111.5816,-8.026],[111.5962,-8.0175],[111.607,-8.0189],[111.6097,-8.0066],[111.6202,-8.0086],[111.6331,-8.0041],[111.6469,-8.0124],[111.6476,-8.022],[111.6532,-8.0205],[111.6574,-7.9976],[111.662,-7.9951],[111.6536,-7.9863],[111.6563,-7.9759],[111.6758,-7.9772],[111.685,-7.9631],[111.6969,-7.9615],[111.6962,-7.9548],[111.7071,-7.9508],[111.705,-7.9375],[111.6929,-7.9288],[111.6913,-7.9221],[111.7037,-7.9092],[111.6996,-7.8975],[111.7324,-7.8949],[111.7419,-7.8884],[111.7502,-7.8909],[111.7612,-7.9231],[111.7561,-7.9285],[111.7477,-7.921],[111.7396,-7.9257],[111.7434,-7.9545],[111.7381,-7.9588],[111.7418,-7.9698],[111.7507,-7.972],[111.7605,-7.9878],[111.7538,-8.0026],[111.7541,-8.0303],[111.7703,-8.0414],[111.7802,-8.0392],[111.7979,-8.0673],[111.8096,-8.0757],[111.8131,-8.0876],[111.8351,-8.0945],[111.8383,-8.0916],[111.8469,-8.1064],[111.8384,-8.1228],[111.8237,-8.1338],[111.7717,-8.1381],[111.7532,-8.1468],[111.745,-8.1387],[111.7336,-8.1425],[111.7117,-8.1788],[111.7193,-8.1872],[111.7168,-8.1909],[111.7228,-8.1935],[111.7211,-8.1995],[111.7285,-8.2005],[111.7278,-8.2059],[111.7337,-8.2105],[111.7331,-8.234],[111.7274,-8.2422],[111.7339,-8.2531],[111.7459,-8.259],[111.75,-8.2828],[111.7591,-8.2902],[111.7777,-8.2897],[111.7683,-8.2948],[111.7762,-8.3065],[111.7694,-8.309],[111.7691,-8.3169],[111.7821,-8.3264],[111.758,-8.3348],[111.7477,-8.3454],[111.747,-8.3348],[111.7387,-8.3329],[111.7476,-8.3079],[111.7378,-8.2963],[111.7307,-8.2997],[111.7353,-8.2944],[111.7301,-8.2881],[111.7129,-8.2912],[111.7071,-8.3027],[111.714,-8.3092],[111.7131,-8.3225],[111.6948,-8.3225],[111.6894,-8.337],[111.7142,-8.3513],[111.7266,-8.3714],[111.7143,-8.3726],[111.7047,-8.3669],[111.7017,-8.3836],[111.6886,-8.3675],[111.6823,-8.3752],[111.6717,-8.3695],[111.667,-8.356],[111.6574,-8.3574],[111.6525,-8.3667],[111.6475,-8.3523],[111.6379,-8.3482],[111.6238,-8.3569],[111.6246,-8.3477],[111.6341,-8.3408],[111.627,-8.3352],[111.6283,-8.3254],[111.6227,-8.3219],[111.612,-8.3216],[111.6072,-8.3303],[111.6112,-8.335],[111.6052,-8.3397],[111.6025,-8.3246],[111.5963,-8.3222],[111.5879,-8.3287],[111.5879,-8.3351],[111.5766,-8.3299],[111.5684,-8.3389],[111.5723,-8.3167],[111.5551,-8.3067],[111.5466,-8.3078],[111.5462,-8.3144],[111.5317,-8.3172],[111.5307,-8.3221],[111.5381,-8.325],[111.5352,-8.3331],[111.5231,-8.3315],[111.5164,-8.3356],[111.5049,-8.3226],[111.4937,-8.3233],[111.4963,-8.3195],[111.4908,-8.3141],[111.482,-8.3198],[111.4832,-8.3094],[111.4788,-8.3061],[111.4694,-8.3139],[111.468,-8.3211],[111.4615,-8.3232],[111.4597,-8.3174],[111.455,-8.3206],[111.4527,-8.3178],[111.4577,-8.3107],[111.4493,-8.309],[111.445,-8.3025],[111.4494,-8.2971],[111.4449,-8.2939],[111.454,-8.288],[111.4501,-8.2843],[111.4511,-8.273],[111.4242,-8.2584],[111.4155,-8.2677],[111.4152,-8.2786],[111.4092,-8.2782],[111.4032,-8.2689],[111.4064,-8.2583],[111.3922,-8.2332],[111.4086,-8.2128]]]}},{"type":"Feature","properties":{"provinsi":"Jawa Timur","kabkota":"Kabupaten Tuban","lat":-6.9525,"lon":111.8946},"geometry":{"type":"Polygon","coordinates":[[[111.5769,-6.9422],[111.5775,-6.9171],[111.6021,-6.9117],[111.6077,-6.9037],[111.6038,-6.8967],[111.6151,-6.8814],[111.6105,-6.8682],[111.6151,-6.8625],[111.614,-6.833],[111.6192,-6.8217],[111.6486,-6.8294],[111.6563,-6.8264],[111.6628,-6.8147],[111.668,-6.8019],[111.66,-6.7814],[111.6698,-6.7639],[111.6719,-6.7705],[111.6755,-6.7699],[111.6739,-6.7748],[111.6845,-6.7712],[111.6916,-6.7539],[111.718,-6.7694],[111.7621,-6.7749],[111.7657,-6.7717],[111.811,-6.7946],[111.843,-6.8008],[111.89,-6.792],[111.9425,-6.7658],[111.959,-6.7635],[111.9801,-6.7735],[111.987,-6.7952],[112.0069,-6.8184],[112.0135,-6.8397],[112.0528,-6.8868],[112.065,-6.8926],[112.0681,-6.8869],[112.0664,-6.8925],[112.0717,-6.8948],[112.1052,-6.8949],[112.1254,-6.9024],[112.1513,-6.8968],[112.1691,-6.8987],[112.1789,-6.905],[112.1802,-6.9128],[112.1988,-6.9129],[112.203,-6.9183],[112.202,-6.9444],[112.2146,-7.0094],[112.2033,-7.0293],[112.2226,-7.0373],[112.2158,-7.0429],[112.2188,-7.0687],[112.2166,-7.0748],[112.2037,-7.0745],[112.1898,-7.0844],[112.1838,-7.0835],[112.1849,-7.0763],[112.1793,-7.0751],[112.1747,-7.0847],[112.1836,-7.0892],[112.1775,-7.0986],[112.165,-7.0986],[112.1579,-7.1105],[112.1461,-7.107],[112.1514,-7.101],[112.1419,-7.1047],[112.1308,-7.0968],[112.1225,-7.1082],[112.1176,-7.0965],[112.1247,-7.0883],[112.0856,-7.0856],[112.0824,-7.0654],[112.055,-7.0726],[112.0415,-7.0821],[112.0398,-7.0784],[112.0468,-7.075],[112.0435,-7.0709],[112.0316,-7.0789],[112.0261,-7.0692],[112.0187,-7.0677],[112.0154,-7.073],[112.0204,-7.0878],[112.0057,-7.094],[112.0144,-7.1017],[112.0034,-7.1083],[112.0104,-7.1303],[112.0049,-7.1305],[111.9948,-7.1148],[111.9837,-7.1489],[111.9836,-7.164],[111.9773,-7.1617],[111.9766,-7.1435],[111.9548,-7.1322],[111.9427,-7.1547],[111.9336,-7.1602],[111.9311,-7.1333],[111.9194,-7.1324],[111.9088,-7.1382],[111.899,-7.1366],[111.8937,-7.1285],[111.8832,-7.1278],[111.8775,-7.133],[111.8648,-7.1265],[111.861,-7.1303],[111.8549,-7.1218],[111.8564,-7.1151],[111.8386,-7.1041],[111.8245,-7.088],[111.7356,-7.077],[111.7128,-7.0806],[111.6923,-7.0634],[111.6969,-7.0525],[111.6918,-7.0321],[111.6856,-7.0255],[111.6759,-7.0181],[111.6696,-7.0202],[111.654,-6.9965],[111.6273,-6.988],[111.6155,-6.9716],[111.5775,-6.9567],[111.5701,-6.9467],[111.5769,-6.9422]]]}},{"type":"Feature","properties":{"provinsi":"Jawa Timur","kabkota":"Kabupaten Tulungagung","lat":-8.1135,"lon":111.8871},"geometry":{"type":"Polygon","coordinates":[[[111.7336,-8.1422],[111.7448,-8.1387],[111.7533,-8.1467],[111.771,-8.138],[111.8237,-8.1337],[111.8383,-8.1229],[111.8465,-8.11],[111.8384,-8.0917],[111.8357,-8.0947],[111.8131,-8.0876],[111.8095,-8.0759],[111.7976,-8.0673],[111.7802,-8.0393],[111.7703,-8.0414],[111.7544,-8.0307],[111.7538,-8.0025],[111.7604,-7.9878],[111.7507,-7.972],[111.7418,-7.9697],[111.7381,-7.9588],[111.7431,-7.9538],[111.7394,-7.9261],[111.7469,-7.921],[111.7542,-7.9286],[111.7608,-7.9245],[111.7549,-7.9144],[111.7594,-7.901],[111.7559,-7.8939],[111.771,-7.8861],[111.7717,-7.8724],[111.778,-7.8657],[111.7714,-7.856],[111.7857,-7.8333],[111.7992,-7.8366],[111.7972,-7.8477],[111.8028,-7.8655],[111.8304,-7.8774],[111.863,-7.9077],[111.8837,-7.9478],[111.9163,-7.9607],[111.9229,-7.9569],[111.9296,-7.9625],[111.9452,-7.9535],[111.9445,-7.9649],[111.9565,-7.9902],[111.9573,-8.0089],[111.9676,-8.0214],[111.9748,-8.044],[111.9883,-8.05],[111.9946,-8.0593],[111.9914,-8.0786],[111.9963,-8.0909],[112.0326,-8.1001],[112.0452,-8.1085],[112.0667,-8.1112],[112.0765,-8.1186],[112.0947,-8.1107],[112.122,-8.1253],[112.1165,-8.1576],[112.1036,-8.1584],[112.0786,-8.1875],[112.0577,-8.1836],[112.0288,-8.1684],[112.0291,-8.1814],[112.023,-8.193],[112.0282,-8.2],[112.0223,-8.2268],[112.0255,-8.2294],[112.0227,-8.2444],[112.0306,-8.2627],[112.0236,-8.2817],[112.0323,-8.2952],[112.0281,-8.3126],[112.0167,-8.3024],[111.9934,-8.2974],[111.978,-8.284],[111.9498,-8.2776],[111.9368,-8.286],[111.9359,-8.2929],[111.944,-8.2963],[111.9378,-8.3064],[111.9292,-8.3066],[111.9125,-8.2973],[111.899,-8.3045],[111.8853,-8.2932],[111.8751,-8.2913],[111.8626,-8.2704],[111.8528,-8.2714],[111.8398,-8.2588],[111.8353,-8.2636],[111.8408,-8.2681],[111.843,-8.2819],[111.8325,-8.2814],[111.822,-8.2707],[111.8145,-8.2729],[111.8088,-8.2651],[111.7998,-8.2699],[111.8034,-8.2629],[111.7968,-8.2565],[111.7766,-8.2567],[111.7701,-8.2684],[111.7792,-8.2751],[111.769,-8.2865],[111.774,-8.2891],[111.7588,-8.2902],[111.7489,-8.2814],[111.7459,-8.2592],[111.7408,-8.2533],[111.7348,-8.2542],[111.7273,-8.2422],[111.733,-8.2341],[111.7341,-8.2123],[111.7268,-8.2046],[111.7284,-8.2005],[111.721,-8.1997],[111.7229,-8.1936],[111.7169,-8.1911],[111.7191,-8.1872],[111.7114,-8.1791],[111.7336,-8.1422]]]}},{"type":"Feature","properties":{"provinsi":"Jawa Timur","kabkota":"Kota Batu","lat":-7.8321,"lon":112.5336},"geometry":{"type":"Polygon","coordinates":[[[112.484,-7.9243],[112.4779,-7.897],[112.4898,-7.8752],[112.4881,-7.8658],[112.495,-7.8555],[112.4966,-7.8369],[112.4936,-7.8276],[112.4996,-7.8157],[112.4889,-7.7646],[112.5006,-7.7613],[112.5029,-7.7548],[112.5135,-7.7501],[112.5148,-7.7415],[112.5296,-7.7349],[112.5618,-7.7379],[112.5749,-7.7327],[112.5818,-7.7579],[112.5882,-7.7655],[112.5701,-7.8155],[112.5644,-7.8795],[112.5725,-7.8896],[112.5833,-7.8886],[112.5945,-7.9043],[112.5834,-7.9083],[112.5802,-7.9175],[112.5675,-7.9128],[112.5148,-7.9202],[112.484,-7.9314],[112.4746,-7.9394],[112.484,-7.9243]]]}},{"type":"Feature","properties":{"provinsi":"Jawa Timur","kabkota":"Kota Blitar","lat":-8.0955,"lon":112.1659},"geometry":{"type":"Polygon","coordinates":[[[112.1348,-8.0831],[112.1436,-8.0773],[112.1618,-8.0845],[112.1732,-8.058],[112.1808,-8.0607],[112.1866,-8.0563],[112.1877,-8.0658],[112.1995,-8.068],[112.1923,-8.0772],[112.1911,-8.0857],[112.1958,-8.088],[112.1925,-8.1],[112.1861,-8.0988],[112.167,-8.1336],[112.1597,-8.1366],[112.1558,-8.1358],[112.1592,-8.1263],[112.1466,-8.1277],[112.1499,-8.1217],[112.14,-8.1159],[112.146,-8.111],[112.1371,-8.1106],[112.1411,-8.1009],[112.1325,-8.0907],[112.1348,-8.0831]]]}},{"type":"Feature","properties":{"provinsi":"Jawa Timur","kabkota":"Kota Kediri","lat":-7.8258,"lon":112.015},"geometry":{"type":"Polygon","coordinates":[[[111.9662,-7.7965],[111.9781,-7.7944],[111.9941,-7.7714],[112.0109,-7.7726],[112.0024,-7.7891],[112.0136,-7.7902],[112.0173,-7.8003],[112.0311,-7.8006],[112.0291,-7.8104],[112.0356,-7.8129],[112.0337,-7.8191],[112.0524,-7.8332],[112.0675,-7.8359],[112.0701,-7.8291],[112.0769,-7.8322],[112.0738,-7.8407],[112.0801,-7.8463],[112.0688,-7.8456],[112.0656,-7.8585],[112.0733,-7.8722],[112.0579,-7.8651],[112.046,-7.8725],[112.0242,-7.8645],[112.0145,-7.8554],[111.9962,-7.8523],[112.0076,-7.8425],[112.0075,-7.8365],[111.987,-7.8395],[111.9836,-7.8277],[111.9581,-7.8229],[111.9544,-7.8124],[111.9662,-7.7965]]]}},{"type":"Feature","properties":{"provinsi":"Jawa Timur","kabkota":"Kota Madiun","lat":-7.6276,"lon":111.5287},"geometry":{"type":"Polygon","coordinates":[[[111.5005,-7.6082],[111.5124,-7.6082],[111.5209,-7.5974],[111.5375,-7.6024],[111.558,-7.5963],[111.5583,-7.6066],[111.5485,-7.6264],[111.5527,-7.6272],[111.5513,-7.6422],[111.5395,-7.6469],[111.5413,-7.6595],[111.5282,-7.6643],[111.5126,-7.6612],[111.5117,-7.636],[111.5029,-7.6361],[111.504,-7.6306],[111.499,-7.6259],[111.5005,-7.6082]]]}},{"type":"Feature","properties":{"provinsi":"Jawa Timur","kabkota":"Kota Malang","lat":-7.9789,"lon":112.6361},"geometry":{"type":"Polygon","coordinates":[[[112.5739,-7.9358],[112.5975,-7.938],[112.6001,-7.9264],[112.5948,-7.9202],[112.6104,-7.9241],[112.6286,-7.911],[112.636,-7.9211],[112.6462,-7.9147],[112.6602,-7.9266],[112.6689,-7.9463],[112.6642,-7.948],[112.6637,-7.9586],[112.6582,-7.9652],[112.6785,-7.9768],[112.69,-7.9756],[112.6938,-7.9817],[112.6832,-8.0055],[112.6724,-8.0097],[112.6754,-8.0276],[112.6652,-8.0407],[112.652,-8.0495],[112.6317,-8.0458],[112.6292,-8.0322],[112.6138,-8.0212],[112.6186,-8.0112],[112.6078,-8.0137],[112.5974,-8.006],[112.6,-7.9979],[112.5894,-7.9924],[112.5911,-7.986],[112.578,-7.985],[112.5807,-7.9795],[112.5971,-7.9839],[112.5911,-7.9741],[112.6043,-7.9703],[112.5919,-7.9512],[112.5699,-7.9392],[112.5739,-7.9358]]]}},{"type":"Feature","properties":{"provinsi":"Jawa Timur","kabkota":"Kota Mojokerto","lat":-7.4721,"lon":112.4371},"geometry":{"type":"Polygon","coordinates":[[[112.4143,-7.4733],[112.4158,-7.4573],[112.4339,-7.4598],[112.4551,-7.4474],[112.4577,-7.4567],[112.4681,-7.4552],[112.4605,-7.4829],[112.451,-7.4821],[112.4498,-7.4934],[112.4438,-7.4907],[112.4434,-7.4819],[112.4368,-7.482],[112.4352,-7.4875],[112.4276,-7.4809],[112.423,-7.4929],[112.415,-7.4946],[112.4077,-7.4916],[112.4058,-7.4792],[112.4143,-7.4733]]]}},{"type":"Feature","properties":{"provinsi":"Jawa Timur","kabkota":"Kota Pasuruan","lat":-7.6503,"lon":112.9091},"geometry":{"type":"Polygon","coordinates":[[[112.8749,-7.6268],[112.8841,-7.6317],[112.8864,-7.6237],[112.8979,-7.6292],[112.9187,-7.6265],[112.9338,-7.6323],[112.9375,-7.6252],[112.9465,-7.6243],[112.9521,-7.6327],[112.9429,-7.6458],[112.9449,-7.6522],[112.9377,-7.6548],[112.9315,-7.6685],[112.9011,-7.6863],[112.8954,-7.6849],[112.8905,-7.673],[112.8815,-7.672],[112.8864,-7.6672],[112.8826,-7.6613],[112.8869,-7.66],[112.8789,-7.6554],[112.8747,-7.6582],[112.8714,-7.651],[112.8749,-7.6268]]]}},{"type":"Feature","properties":{"provinsi":"Jawa Timur","kabkota":"Kota Probolinggo","lat":-7.7752,"lon":113.2055},"geometry":{"type":"Polygon","coordinates":[[[113.1699,-7.7545],[113.1777,-7.7517],[113.1798,-7.7444],[113.1847,-7.7473],[113.2109,-7.7388],[113.2196,-7.7268],[113.2244,-7.7377],[113.2371,-7.7403],[113.2322,-7.7552],[113.237,-7.7733],[113.234,-7.7799],[113.242,-7.7953],[113.2403,-7.7995],[113.2358,-7.7982],[113.2367,-7.8064],[113.2266,-7.8018],[113.2171,-7.8198],[113.2041,-7.8128],[113.2074,-7.8048],[113.2002,-7.8125],[113.1786,-7.8101],[113.1828,-7.7909],[113.177,-7.7885],[113.1784,-7.7832],[113.164,-7.7792],[113.1699,-7.7545]]]}},{"type":"Feature","properties":{"provinsi":"Jawa Timur","kabkota":"Kota Surabaya","lat":-7.2747,"lon":112.722},"geometry":{"type":"Polygon","coordinates":[[[112.593,-7.2157],[112.6008,-7.2129],[112.5974,-7.204],[112.6052,-7.2074],[112.6078,-7.2027],[112.6105,-7.2079],[112.6133,-7.2009],[112.6156,-7.2076],[112.6202,-7.2018],[112.6218,-7.2083],[112.6253,-7.1972],[112.6397,-7.1925],[112.6631,-7.1934],[112.6601,-7.2071],[112.6682,-7.2199],[112.6856,-7.2254],[112.7107,-7.2222],[112.7203,-7.1992],[112.7291,-7.209],[112.7316,-7.1991],[112.7236,-7.198],[112.7476,-7.1942],[112.7524,-7.1999],[112.7645,-7.1963],[112.7819,-7.2106],[112.807,-7.2522],[112.8075,-7.2613],[112.8395,-7.2773],[112.8469,-7.2967],[112.8458,-7.3098],[112.827,-7.333],[112.8259,-7.3432],[112.8115,-7.3469],[112.7813,-7.3451],[112.777,-7.3401],[112.7677,-7.3417],[112.7554,-7.3368],[112.7535,-7.3422],[112.7433,-7.3412],[112.742,-7.3452],[112.7258,-7.3483],[112.7048,-7.3364],[112.6783,-7.3504],[112.6638,-7.3514],[112.6623,-7.3378],[112.6514,-7.3371],[112.6515,-7.315],[112.6269,-7.315],[112.6299,-7.3035],[112.6262,-7.3001],[112.6264,-7.2772],[112.6314,-7.2745],[112.6323,-7.2617],[112.6172,-7.2576],[112.6142,-7.2482],[112.602,-7.2465],[112.6064,-7.2405],[112.6045,-7.2329],[112.5914,-7.2203],[112.593,-7.2157]],[[112.5944,-7.2167],[112.5972,-7.2216],[112.6007,-7.2167],[112.5944,-7.2167]]]}}],"metadata":{"sumber":"Batas desa/kelurahan skema RBI Badan Informasi Geospasial (via github.com/AdiAryantoM/geojson-kabupaten-kota-jawa-timur), dilarutkan ke kabupaten/kota dan disederhanakan (toleransi 0,003 derajat)"}}